the_geom,borough,name,location,lat,lon,citymap_l,materials,days,hours,months_of,requireme,organizer,composted,website,site_type,container,nyc_compo,addrtype,addrlocat,cartodb_id,created_at,updated_at
0101000020E61000007F32C687D97E52C0D87BF1457B5C4440,MN,Los Amigos Garden,"221 East 3rd Street, 10009",,,http://gis.nyc.gov/doitt/nycitymap/?searchType=BblSearch&borough=Manhattan&block=386&lot=60&Submit3=Go,"leaves, garden trimmings, food scraps",,,,,,,http://www.nycgovparks.org/parks/M357/,Community Garden,open pile,no,,street_address,112,2014-09-10 16:12:51.027881+00,2014-09-10 16:12:51.027881+00
0101000020E6100000F1B50CDD917E52C056D3F544D7584440,BK,3 Stars Garden,"51 Edwards Street, 11205",,,,"leaves, garden trimmings, food scraps",,,,,,,,NYC Schools (K-12),2 or 3 bin,no,,street_address,2,2014-09-10 16:12:51.027881+00,2014-09-10 16:12:51.027881+00
0101000020E61000001247C3CEB97E52C03EF89A2F405D4440,MN,El Sol Brillante Garden,"524 East 12th Street,10009",,,http://gis.nyc.gov/doitt/nycitymap/?searchType=BblSearch&borough=Manhattan&block=405&lot=20&Submit3=Go,"leaves, garden trimmings, food scraps",,,,,,,,Community Garden,"2 or 3 bin, enclosed bins",no,,street_address,101,2014-09-10 16:12:51.027881+00,2014-09-10 16:12:51.027881+00
0101000020E6100000258392B87D7252C05688FD54CB4B4440,QN,Rockaway Hip Hop Community Garden,"Rockaway Beach Boulevard at 59th Street, 11691",,,,"garden trimmings, leaves, food scraps",,,,,,,,Community Garden,"2 or 3 bin, enclosed bins",n/a,,intersection,166,2014-09-10 16:12:51.027881+00,2014-09-10 16:12:51.027881+00
0101000020E6100000ACA2E47A007952C0481EE3E544564440,BK,East End Community Garden,"Glenmore Avenue and Van Siclen Avenue, 11207",,,,"leaves, garden trimmings, food scraps",,,,,,,,Community Garden,enclosed bin,no,,intersection,28,2014-09-10 16:12:51.027881+00,2014-09-10 16:12:51.027881+00
0101000020E6100000934BE3175E7C52C06C96CB46E7584440,BK,Tranquility Farm,"Corner of Willoughby Avenue and Throop Avenue, 11206",,,,"leaves, garden trimmings, food scraps",,,,,,,,Community Garden,2 or 3 bin,no,,intersection,69,2014-09-10 16:12:51.027881+00,2014-09-10 16:12:51.027881+00
0101000020E6100000D7B7DD150B7B52C07FB5B4649F5E4440,QN,Celtic Park Co-op,"48-10 43rd Street, 11377",,,http://gis.nyc.gov/doitt/nycitymap/?searchType=BblSearch&borough=Queens&block=178&lot=25&Submit3=Go,food scraps,,,,,,,,Residential,enclosed bins,no,,street_address,142,2014-09-10 16:12:51.027881+00,2014-09-10 16:12:51.027881+00
0101000020E6100000713D0AD7A37052C0CDCCCCCCCC4C4440,QN,Soloman Schecter,"P.O. Box 90065, 11690",,,,"leaves, garden trimmings, food scraps",,,,,,,,NYC Schools (K-12),enclosed bin,n/a,,postal_code,170,2014-09-10 16:12:51.027881+00,2014-09-10 16:12:51.027881+00
0101000020E610000071A3C85A437D52C05682C5E1CC574440,BK,100 Quincy Community Garden,"100 Quincy Street, 11238",,,"http://maps.nyc.gov/doitt/nycitymap/?z=7&p=996697,188745&c=GISBasic&s=a:100,QUINCY+STREET,BROOKLYN","leaves, garden trimmings, food scraps",,,,,,,https://www.facebook.com/100Quincy?ref=stream,Community Garden,enclosed bin,no,,street_address,1,2014-09-10 16:12:51.027881+00,2014-09-10 16:12:51.027881+00
0101000020E6100000092241A7568152C0FDD75EB0C0514440,BK,64th Street Garden,"373 64th Street, 11220",,,"http://maps.nyc.gov/doitt/nycitymap/?z=8&p=978436,172040&c=GISBasic&s=a:373,64+STREET,BROOKLYN","leaves, garden trimmings, food scraps",,,,,,,https://www.facebook.com/pages/64th-Street-Community-Garden/167546503305947,Community Garden,"2 or 3 bin, enclosed bin",no,,street_address,4,2014-09-10 16:12:51.027881+00,2014-09-10 16:12:51.027881+00
0101000020E6100000281884A8317F52C01F0EB7E809554440,BK,6th Ave / 15th Street Green Community Garden,"274 15th Street, 11215",,,"http://gis.nyc.gov/doitt/nycitymap/?z=8&p=987745,181332&c=GISBasic&s=a:274,15+STREET,BROOKLYN",varies,,,,,,,http://www.615green.org,Community Garden,"2 or 3 bin, enclosed bin, open pile",no,,street_address,5,2014-09-10 16:12:51.027881+00,2014-09-10 16:12:51.027881+00
0101000020E61000005C76887FD88052C0F88DAF3DB3564440,BK,Added Value,"370 Van Brunt Street, 11231",,,"http://gis.nyc.gov/doitt/nycitymap/?z=8&p=980586,186061&c=GISBasic&s=a:370,VAN+BRUNT+STREET,BROOKLYN","leaves, garden trimmings, food scraps",,,,,,,http://www.added-value.org,Business,"2 or 3 bin, open pile/bin, enclosed bins",yes,,street_address,6,2014-09-10 16:12:51.027881+00,2014-09-10 16:12:51.027881+00
0101000020E6100000CA1B60E63B8052C091CCEA1D6E574440,BK,Amazing Garden,"Corner of Columbia and Carroll Streets, 11231",,,,"leaves, garden trimmings",,,,,,,http://www.nycgovparks.org/parks/B409,Community Garden,"2 or 3 bin, enclosed bin",no,,intersection,7,2014-09-10 16:12:51.027881+00,2014-09-10 16:12:51.027881+00
0101000020E61000008D429259BD7A52C01041D5E8D5564440,BK,Bed Stuy Campaign Against Hunger,"2010 Fulton Street, 11233",,,"http://gis.nyc.gov/doitt/nycitymap/?z=8&p=1007041,186477&c=GISBasic&s=a:2010,FULTON+STREET,BROOKLYN","garden trimmings, food scraps",,,,,,,http://www.bedstuyagainsthunger.org,Business,2 or 3 bin,no,,street_address,9,2014-09-10 16:12:51.027881+00,2014-09-10 16:12:51.027881+00
0101000020E61000003C17467A517B52C07CB5A33847574440,BK,BRM Bed Stuy Farm,"255 Bainbridge Street, 11223",,,"http://gis.nyc.gov/doitt/nycitymap/?z=8&p=1004552,187621&c=GISBasic&s=a:255,BAINBRIDGE+STREET,BROOKLYN","leaves, garden trimmings, food scraps",,,,,,,http://brooklynrescuemission.org/Bedstuyfarm.aspx,Community Garden,tumbler,no,,street_address,10,2014-09-10 16:12:51.027881+00,2014-09-10 16:12:51.027881+00
0101000020E610000044DA6BE6B57D52C04DD070146A574440,BK,Brooklyn Bears Carlton Avenue Garden,"Carlton Avenue between Greene Avenue and Fulton Street, 11238",,,"http://gis.nyc.gov/doitt/nycitymap/?z=8&p=992280,189089&c=GISBasic&s=l:BROOKLYN,1957,21,PLUTO","leaves, garden trimmings, food scraps",,,,,,,http://www.cenyc.org/osg-rwh-carlton,Community Garden,2 or 3 bin,no,,route,11,2014-09-10 16:12:51.027881+00,2014-09-10 16:12:51.027881+00
0101000020E6100000CD6559E6637F52C0EB138ABECC584440,BK,Brooklyn Borough Hall Greenmarket,"Court St and Montague Street, Brooklyn, NY 11201",40.69373999970139,-73.99130999985647,"http://gis.nyc.gov/doitt/nycitymap/?z=9&p=986952,192125&c=GISBasic&s=i:COURT+STREET,MONTAGUE+STREET,BROOKLYN",food scraps,Saturdays,8 am – 4 pm,Year Round,check website regularly for drop off schedule updates,DSNY & GrowNYC Food Waste Drop-Off Program,GrowNYC community partners,http://www.nyc.gov/html/nycwasteless/html/compost/compostproj_orp_program.shtml,,,,,intersection,12,2014-09-10 16:12:51.027881+00,2014-09-11 19:25:15.553156+00
0101000020E6100000E5F91DD48F7D52C0DDE1C0F572554440,BK,Brooklyn Botanic Garden,"1000 Washington Avenue, 11225",,,"http://gis.nyc.gov/doitt/nycitymap/?z=8&p=994786,182216&c=GISBasic&s=a:1000,WASHINGTON+AVENUE,BROOKLYN","leaves, garden trimmings",,,,,,,http://www.bbg.org,Institution,"2 or 3 bin, enclosed bins",no,,street_address,13,2014-09-10 16:12:51.027881+00,2014-09-10 16:12:51.027881+00
0101000020E610000004D7CBA5277D52C0BEBBF0DEAC504440,BK,Brooklyn College,"2900 Bedford Avenue, 11201",,,"http://gis.nyc.gov/doitt/nycitymap/?z=8&p=997227,168991&c=GISBasic&s=a:2900,BEDFORD+AVENUE,BROOKLYN","leaves, garden trimmings, food scraps",,,,,,,http://brooklyncollegegarden.blogspot.com/,Institution,enclosed bins,yes,,premise,14,2014-09-10 16:12:51.027881+00,2014-09-10 16:12:51.027881+00
0101000020E61000002E9276A38F7D52C064EB19C231574440,BK,Brooklyn's Finest,"48 Lefferts Place, 11238",,,"http://gis.nyc.gov/doitt/nycitymap/?z=10&p=994618,188401&c=GISBasic&s=a:48,LEFFERTS+PLACE,BROOKLYN","leaves, garden trimmings",,,,,,,,Community Garden,enclosed bin,no,,street_address,15,2014-09-10 16:12:51.027881+00,2014-09-10 16:12:51.027881+00
0101000020E61000001F1329CDE67F52C0EC681CEA77574440,BK,Brownsville Student Farm Project,"235 Union Street, 11231",,,"http://maps.nyc.gov/doitt/nycitymap/?z=8&p=984671,188228&c=GISBasic&s=a:235,UNION+STREET,BROOKLYN","leaves, garden trimmings, food scraps",,,,,,,http://www.studentfarmproject.com,Community Garden,2 or 3 bin,no,,street_address,16,2014-09-10 16:12:51.027881+00,2014-09-10 16:12:51.027881+00
0101000020E61000002CEF4F4E597A52C0D55E44DB31594440,BK,Bushwick Campus Farm,"400 Irving Avenue, 11237",,,"http://maps.nyc.gov/doitt/nycitymap/?z=8&p=1008729,193156&c=GISBasic&s=a:400,IRVING+AVENUE,BROOKLYN","leaves, garden trimmings, food scraps",,,,,,,http://www.EcoStationNY.org,NYC Schools (K-12),"2 or 3 bin, enclosed bin, open pile",no,,street_address,17,2014-09-10 16:12:51.027881+00,2014-09-10 16:12:51.027881+00
0101000020E61000006A3414D2F57B52C0487254C95B594440,BK,Bushwick City Farm,"895 Broadway, 11206",,,"http://gis.nyc.gov/doitt/nycitymap/?z=8&p=1001679,193506&c=GISBasic&s=a:896,BROADWAY,BROOKLYN","leaves, garden trimmings, food scraps, chicken manure",,,,,,,,Community Garden,2 or 3 bin,no,,street_address,18,2014-09-10 16:12:51.027881+00,2014-09-10 16:12:51.027881+00
0101000020E610000024F664590B7B52C027FA7C94115A4440,BK,PS 123 Garden,"100 Irving Avenue, 11237",,,"http://gis.nyc.gov/doitt/nycitymap/?z=8&p=1005734,195817&c=GISBasic&s=a:100,IRVING+AVENUE,BROOKLYN","leaves, garden trimmings, food scraps",,,,,,,,NYC Schools (K-12),"2-3 bin system, enclosed bin",no,,street_address,54,2014-09-10 16:12:51.027881+00,2014-09-10 16:12:51.027881+00
0101000020E61000008AD7AB7E5B7D52C044CF770140534440,BK,Church Avenue Communal Garden,"Church Avenue and Flatbush Avenue, 11226",,,"http://gis.nyc.gov/doitt/nycitymap/?z=8&p=995708,176233&c=GISBasic&s=i:CHURCH+AVENUE,FLATBUSH+AVENUE,BROOKLYN","leaves, garden trimmings, food scraps",,,,,,,http://www.sustainableflatbush.org/2011/05/13/church-avenue-communal-garden-may-2011-update,Community Garden,"2 or 3 bin, enclosed bins",no,,intersection,20,2014-09-10 16:12:51.027881+00,2014-09-10 16:12:51.027881+00
0101000020E61000002FE9DE79187D52C0BA1281EA1F584440,BK,Clifton Place Community Garden,"1035 Bedford Avenue, 11216",,,"http://maps.nyc.gov/doitt/nycitymap/?z=8&p=996833,190115&c=GISBasic&s=a:1035,BEDFORD+AVENUE,BROOKLYN","leaves, garden trimmings, food scraps",,,,,,,http://www.cliftongarden.blogspot.com,Community Garden,enclosed bin,no,,street_address,21,2014-09-10 16:12:51.027881+00,2014-09-10 16:12:51.027881+00
0101000020E610000037A5BC56427D52C07DB262B83A564440,BK,Crow Hill Community Garden,"730 Franklin Avenue, 11238",,,"http://gis.nyc.gov/doitt/nycitymap/?z=10&p=996145,184729&c=GISBasic&s=l:BROOKLYN,1168,57,PLUTO","leaves, garden trimmings, food scraps",,,,,,,http://www.crowhillcommunity.org/garden.shtml,Community Garden,1 bin,no,,street_address,24,2014-09-10 16:12:51.027881+00,2014-09-10 16:12:51.027881+00
0101000020E6100000D1950854FF7E52C0BD5296218E574440,BK,David Foulke Memorial Garden,"250 Bergen Street, 11217",,,"http://gis.nyc.gov/doitt/nycitymap/?z=8&p=988607,188502&c=GISBasic&s=a:250,BERGEN+STREET,BROOKLYN","leaves, garden trimmings, food scraps",,,,,,,,Community Garden,enclosed bins,no,,street_address,25,2014-09-10 16:12:51.027881+00,2014-09-10 16:12:51.027881+00
0101000020E610000091D1A68F657D52C07931DEA0075E4440,BK,Eagle Street Rooftop Farm,"44 Eagle Street, 11211",,,"http://gis.nyc.gov/doitt/nycitymap/?z=8&p=995515,206839&c=GISBasic&s=a:44,EAGLE+STREET,BROOKLYN",food scraps,,,,,,,http://rooftopfarms.org,Business,varies,no,,street_address,26,2014-09-10 16:12:51.027881+00,2014-09-10 16:12:51.027881+00
0101000020E610000038876BB5877E52C0A7B1BD16F4524440,BK,East 4th Street Community Garden,"179 East 4th Street, 11218",,,"http://gis.nyc.gov/doitt/nycitymap/?z=8&p=990604,175382&c=GISBasic&s=a:179,EAST+4+STREET,BROOKLYN","leaves, garden trimmings, food scraps",,,,,,,http://eastfourthstreetgarden.wordpress.com,Community Garden,"2 or 3 bin, open pile, enclosed bins",no,,street_address,27,2014-09-10 16:12:51.027881+00,2014-09-10 16:12:51.027881+00
0101000020E6100000D97745F0BF7852C07BD976DA1A554440,BK,East New York Farms! UCC Youth Garden,"613 New Lots Avenue, 11207",,,"http://gis.nyc.gov/doitt/nycitymap/?z=8&p=1015670,181536&c=GISBasic&s=a:613,NEW+LOTS+AVENUE,BROOKLYN","leaves, garden trimmings, food scraps",,,,,,,http://www.eastnewyorkfarms.org,Community Garden,"2 or 3 bin, open pile/bin, enclosed bins",yes,,street_address,29,2014-09-10 16:12:51.027881+00,2014-09-10 16:12:51.027881+00
0101000020E610000023BF7E880D7A52C0B29AAE27BA584440,BK,Eldert Street Garden,"315 Eldert Street, 11237",,,"http://gis.nyc.gov/doitt/nycitymap/?z=8&p=1010020,191841&c=GISBasic&s=a:315,ELDERT+STREET,BROOKLYN","leaves, garden trimmings, food scraps",,,,,,,http://eldertstreetgarden.blogspot.com,Community Garden,2 or 3 bin,no,,street_address,30,2014-09-10 16:12:51.027881+00,2014-09-10 16:12:51.027881+00
0101000020E6100000CF9F36AAD37D52C0B0AC342905524440,BK,Cortelyou Greenmarket,"1305 Courtelyou Road, Brooklyn NY 11226",40.64728000027196,-73.9573199999179,"http://gis.nyc.gov/doitt/nycitymap/?z=8&p=993880,172748&c=GISBasic&s=i:CORTELYOU+ROAD,RUGBY+ROAD,BROOKLYN","food scraps, leaves, garden trimmings",Sundays,8 am – 1 pm,,check website regularly for drop off schedule updates,DSNY & GrowNYC Food Waste Drop-Off Program,NYC Department of Sanitation,http://www.nyc.gov/html/nycwasteless/html/compost/compostproj_orp_program.shtml,,,,,street_address,23,2014-09-10 16:12:51.027881+00,2014-09-11 19:25:47.858247+00
0101000020E610000077E1BD59B97D52C0E6D2533FCA524440,BK,Flatbush CommUNITY Garden,"1550 Albemarle Road, 11226",,,"http://gis.nyc.gov/doitt/nycitymap/?z=8&p=993956,174904&c=GISBasic&s=a:1550,ALBEMARLE+ROAD,BROOKLYN",varies,,,,,,,http://www.sustainableflatbush.org,Community Garden,varies,yes,,street_address,31,2014-09-10 16:12:51.027881+00,2014-09-10 16:12:51.027881+00
0101000020E6100000B08D78B29B7852C0518369183E564440,BK,Floral Vineyard Community Garden,"2381 Pitkin Avenue, 11207",,,"http://gis.nyc.gov/doitt/nycitymap/?z=8&p=1016282,184768&c=GISBasic&s=a:2381,PITKIN+AVENUE,BROOKLYN","leaves, garden trimmings, food scraps",,,,,,,,Community Garden,"2 or 3 bin, enclosed bins",no,,street_address,32,2014-09-10 16:12:51.027881+00,2014-09-10 16:12:51.027881+00
0101000020E61000009EA8B6E5ED7852C0752B3A483E4C4440,BK,Floyd Bennett Gardens Association (FBGA),"1 Floyd Bennet Field, 11234",,,"http://gis.nyc.gov/doitt/nycitymap/?z=8&p=1014584,152531&c=GISBasic&s=p:FLOYD+BENNETT+FIELD,BROOKLYN","leaves, garden trimmings, food scraps",,,,,,,http://www.fbga.net,Community Garden,"2 or 3 bin, open pile/bin, enclosed bins",yes,,campground,33,2014-09-10 16:12:51.027881+00,2014-09-10 16:12:51.027881+00
0101000020E6100000F02A6B9BE27E52C058AD4CF8A5564440,BK,Garden of Union,"634-36 Union Street, 11215",,,"http://gis.nyc.gov/doitt/nycitymap/?z=8&p=989087,185913&c=GISBasic&s=a:634,UNION+STREET,BROOKLYN",food scraps,,,,,,,,Community Garden,"2 or 3 bin, enclosed bins",yes,,street_address,35,2014-09-10 16:12:51.027881+00,2014-09-10 16:12:51.027881+00
0101000020E6100000BA281F27717F52C0B9A981E673564440,BK,Gowanus Canal Conservancy,"2 2nd Avenue, Brooklyn, 11215",,,"http://gis.nyc.gov/doitt/nycitymap/?z=8&p=986428,185380&c=GISBasic&s=l:BROOKLYN,977,3,PLUTO","leaves, garden trimmings, food scraps",,,,,,,http://www.gowanuscanalconservancy.org/,Institution,enclosed bins,no,,street_address,36,2014-09-10 16:12:51.027881+00,2014-09-10 16:12:51.027881+00
0101000020E610000051F86C1D1C8052C078F01307D0534440,BK,Granja Los Colibries Community Garden,"219 34th Street, 11220",,,"http://maps.nyc.gov/doitt/nycitymap/?z=8&p=983761,177837&c=GISBasic&s=a:219,34+STREET,BROOKLYN","leaves, garden trimmings, food scraps",,,,,,,http://www.la-union.org,Community Garden,2 or 3 bin,no,,street_address,38,2014-09-10 16:12:51.027881+00,2014-09-10 16:12:51.027881+00
0101000020E61000009EEC66463F7D52C060C1FD8007584440,BK,Greene Acres Community Garden,"Corner of Greene Avenue and Franklin Avenue, 11238",,,"http://gis.nyc.gov/doitt/nycitymap/?z=8&p=996179,189838&c=GISBasic&s=i:GREENE+AVENUE,FRANKLIN+AVENUE,BROOKLYN","leaves, garden trimmings, food scraps",,,,,,,http://greeneacres.interactivist.net/,Community Garden,"2 or 3 bin, enclosed bins",no,,intersection,39,2014-09-10 16:12:51.027881+00,2014-09-10 16:12:51.027881+00
0101000020E61000009160AA99B57B52C0E2934E2498564440,BK,Immani 2 Community Garden,"1680 Pacific Street, 11213",,,"http://gis.nyc.gov/doitt/nycitymap/?z=8&p=1002843,185759&c=GISBasic&s=a:1680,PACIFIC+STREET,BROOKLYN","leaves, garden trimmings, food scraps, horse manure",,,,,,,,Community Garden,2 or 3 bin,no,,street_address,40,2014-09-10 16:12:51.027881+00,2014-09-10 16:12:51.027881+00
0101000020E6100000043D2F70547D52C0BD32141C03584440,BK,Jane Bailey Community Garden,"325 Greene Avenue, 11238",,,"http://gis.nyc.gov/doitt/nycitymap/?z=8&p=995715,189853&c=GISBasic&s=a:325,GREENE+AVENUE,BROOKLYN","leaves, garden trimmings, food scraps",,,,,,,,Community Garden,2 or 3 bin,no,,street_address,41,2014-09-10 16:12:51.027881+00,2014-09-10 16:12:51.027881+00
0101000020E6100000482A9D595C7D52C01C0824BC985D4440,BK,Java Street Garden,"59 Java Street, 11222",,,"http://maps.nyc.gov/doitt/nycitymap/?z=8&p=995664,205757&c=GISBasic&s=a:59,JAVA+STREET,BROOKLYN","leaves, garden trimmings, food scraps",,,,,,,http://javastreetgarden.tumblr.com/,Community Garden,enclosed bin,no,,street_address,42,2014-09-10 16:12:51.027881+00,2014-09-10 16:12:51.027881+00
0101000020E61000006E4E2503407B52C02E151BF33A5A4440,BK,Jefferson Street Garden,"321 Jefferson Street, 11237",,,"http://gis.nyc.gov/doitt/nycitymap/?z=10&p=1004750,196082&c=GISBasic&s=a:321,JEFFERSON+STREET,BROOKLYN","leaves, garden trimmings, food scraps",,,,,,,,Community Garden,enclosed bin,no,,street_address,43,2014-09-10 16:12:51.027881+00,2014-09-10 16:12:51.027881+00
0101000020E61000006D904946CE7B52C050560C57074A4440,BK,Kingsborough Community College,"2001 Oriental Avenue, 11235",,,"http://maps.nyc.gov/doitt/nycitymap/?z=8&p=1002458,149994&c=GISBasic&s=a:2001,ORIENTAL+BOULEVARD,BROOKLYN","leaves, garden trimmings, food scraps",,,,,,,http://www.kbcc.cuny.edu,Institution,2 or 3 bin,no,,street_address,44,2014-09-10 16:12:51.027881+00,2014-09-10 16:12:51.027881+00
0101000020E6100000FD9FC37CF97C52C032271E06A9564440,BK,Mama Dees Community Garden,"Dean Street and Rogers Avenue, Brooklyn 11238",,,"http://gis.nyc.gov/doitt/nycitymap/?z=8&p=997376,185939&c=GISBasic&s=i:DEAN+STREET,BEDFORD+AVENUE,BROOKLYN","leaves, garden trimmings, food scraps",,,,,,,,Community Garden,"2 or 3 bin, enclosed bins, open pile",no,,intersection,45,2014-09-10 16:12:51.027881+00,2014-09-10 16:12:51.027881+00
0101000020E6100000A5272CF1007D52C0C6B7C19A145C4440,BK,North Brooklyn Compost Project,"McCarren Park (opposite 228 North 12th Street), 11211",,,"http://gis.nyc.gov/doitt/nycitymap/?z=8&p=997242,201482&c=GISBasic&s=i:NORTH+12+STREET,UNION+AVENUE,BROOKLYN","leaves, garden trimmings, food scraps",,,,,,,http://northbrooklyncompostproject.wordpress.com,Park,enclosed bins,no,,street_address,47,2014-09-10 16:12:51.027881+00,2014-09-10 16:12:51.027881+00
0101000020E6100000DAF51CA21B7E52C0D6FC9D9218564440,BK,Grand Army Plaza Greenmarket,"Prospect Park West and Plaza Street West, Brooklyn, NY 11238",40.679380000286926,-73.9635700003551,"http://gis.nyc.gov/doitt/nycitymap/?z=7&p=991952,182827&c=GISBasic&s=i:PROSPECT+PARK+WEST,PLAZA+ST+WEST,BROOKLYN",food scraps,Saturdays,8 am – 3:30 pm,Year Round,check website for specific food scrap drop-off requirements and schedule updates,DSNY & GrowNYC Food Waste Drop-Off Program,GrowNYC community partners,http://www.nyc.gov/html/nycwasteless/html/compost/compostproj_orp_program.shtml,,,,,intersection,37,2014-09-10 16:12:51.027881+00,2014-09-11 19:26:12.842673+00
0101000020E610000082148612F77E52C0990F087426564440,BK,Old Stone House,"336 3rd Street, 11215",,,"http://maps.nyc.gov/doitt/nycitymap/?z=8&p=988517,184464&c=GISBasic&s=a:336,3+STREET,BROOKLYN","leaves, garden trimmings, food scraps",,,,,,,http://www.theoldstonehouse.org,Community Garden,"enclosed bin, 2 or 3 bin",no,,street_address,49,2014-09-10 16:12:51.027881+00,2014-09-10 16:12:51.027881+00
0101000020E6100000C440D7BE807E52C06A6CAF05BD534440,BK,Prospect Farm,"1194 Prospect Avenue, 11218",,,"http://gis.nyc.gov/doitt/nycitymap/?z=8&p=990738,177621&c=GISBasic&s=a:1194,PROSPECT+AVENUE,BROOKLYN","leaves, garden trimmings, food scraps",,,,,,,http://www.facebook.com/ProspectFarmBK,Community Garden,"enclosed bin, 2 or 3 bin, trench composting",no,,street_address,51,2014-09-10 16:12:51.027881+00,2014-09-10 16:12:51.027881+00
0101000020E6100000266F8099EF7D52C064B2B8FFC8564440,BK,Prospect Heights Community Farm,"252 Saint Mark's Avenue, 11238",,,"http://gis.nyc.gov/doitt/nycitymap/?z=8&p=993197,186325&c=GISBasic&s=a:252,ST+MARK","leaves, garden trimmings, food scraps",,,,,,,http://www.phcfarm.com,Community Garden,"2 or 3 bin, enclosed bins",no,,street_address,53,2014-09-10 16:12:51.027881+00,2014-09-10 16:12:51.027881+00
0101000020E610000093F30F6CA67C52C0EE5AE78475604440,QN,Land Restoration Project,"Queen Plaza South and 10th Street, 11101",,,"http://maps.nyc.gov/doitt/nycitymap/?z=8&p=998766,213843&c=GISBasic&s=i:QUEENS+PLAZA+SOUTH,10+STREET,QUEENS",n/a,,,,,,,,Park,n/a,n/a,,intersection,152,2014-09-10 16:12:51.027881+00,2014-09-10 16:12:51.027881+00
0101000020E610000012C2A38D238252C08927BB99D14F4440,BK,PS 185,"8601 Ridge Boulevard, 11209",,,"http://maps.nyc.gov/doitt/nycitymap/?z=8&p=974950,166487&c=GISBasic&s=a:8601,RIDGE+BOULEVARD,BROOKLYN","leaves, garden trimmings, food scraps",,,,,,,http://www.schools.nyc.gov/schoolportals/20/k185/default.htm,NYC Schools (K-12),enclosed bins,no,,street_address,55,2014-09-10 16:12:51.027881+00,2014-09-10 16:12:51.027881+00
0101000020E6100000E2EA5B412E7C52C06B9DB81CAF5B4440,BK,Red Shed Garden,"266 Skillman Avenue, 11211",,,"http://gis.nyc.gov/doitt/nycitymap/?z=8&p=1000804,200172&c=GISBasic&s=a:266,SKILLMAN+AVENUE,BROOKLYN","leaves, garden trimmings, food scraps",,,,,,,http://redshedcommunitygarden.blogspot.com,Community Garden,enclosed bin,no,,street_address,57,2014-09-10 16:12:51.027881+00,2014-09-10 16:12:51.027881+00
0101000020E61000005B3A8B83F07E52C0A0EC777297554440,BK,Schaef Earth Garden of the Park Slope United Methodist Church,"414 6th Avenue, 11215",,,"http://gis.nyc.gov/doitt/nycitymap/?z=8&p=988797,182974&c=GISBasic&s=a:414,6+AVENUE,BROOKLYN","leaves, garden trimmings, food scraps",,,,,,,http://psumcearthgarden.blogspot.com,Institution,2 or 3 bin,no,,street_address,58,2014-09-10 16:12:51.027881+00,2014-09-10 16:12:51.027881+00
0101000020E6100000EF384547727C52C028B7ED7BD4574440,BK,Shiloh Community Garden,"Monroe Street near Tompkins Avenue, 11216",,,"http://gis.nyc.gov/doitt/nycitymap/?z=8&p=999454,189316&c=GISBasic&s=l:BROOKLYN,1814,44,PLUTO","leaves, garden trimmings, food scraps",,,,,,,,Community Garden,2 or 3 bin,no,,route,59,2014-09-10 16:12:51.027881+00,2014-09-10 16:12:51.027881+00
0101000020E6100000CAFE791A308052C0B50EB33CB4574440,BK,South Brooklyn Children’s Garden,"204 Columbia Street, 11231",,,"http://maps.nyc.gov/doitt/nycitymap/?z=8&p=983443,188926&c=GISBasic&s=a:204,COLUMBIA+STREET,BROOKLYN","leaves, garden trimmings, food scraps",,,,,,,http://southbrooklynchildrensgarden.org/about-us/,Community Garden,2 or 3 bin,no,,street_address,60,2014-09-10 16:12:51.027881+00,2014-09-10 16:12:51.027881+00
0101000020E61000009B875D25E97C52C03B072A3E995A4440,BK,Southside Community Garden,"South 4th Street and Hewes Street, 11211",,,"http://gis.nyc.gov/doitt/nycitymap/?z=8&p=997634,197153&c=GISBasic&s=i:SOUTH+4+STREET,HEWES+STREET,BROOKLYN","leaves, garden trimmings, food scraps",,,,,,,http://www.scgwilliamsburg.com/,Community Garden,enclosed bins,no,,intersection,61,2014-09-10 16:12:51.027881+00,2014-09-10 16:12:51.027881+00
0101000020E6100000B6B52A2E337952C030C676AD73554440,BK,St. John Cantius,"476 New Jersey Avenue, 11207",,,"http://gis.nyc.gov/doitt/nycitymap/?z=8&p=1013653,182470&c=GISBasic&s=a:476,NEW+JERSEY+AVENUE,BROOKLYN","leaves, garden trimmings, food scraps",,,,,,,http://www.grownyc.org/openspace/rwh/cantius,Community Garden,2 or 3 bin,no,,street_address,62,2014-09-10 16:12:51.027881+00,2014-09-10 16:12:51.027881+00
0101000020E6100000452A8C2D047E52C0D28F8653E6564440,BK,St. Marks Prospect Heights Community Garden,"207 St. Marks Avenue, 11238",,,"http://gis.nyc.gov/doitt/nycitymap/?z=8&p=992844,186628&c=GISBasic&s=a:207,ST+MARKS+AVENUE,BROOKLYN","leaves, garden trimmings, food scraps",,,,,,,http://www.bqlt.org/StMarks.html,Community Garden,2 or 3 bin,no,,street_address,63,2014-09-10 16:12:51.027881+00,2014-09-10 16:12:51.027881+00
0101000020E6100000266F8099EF7D52C064B2B8FFC8564440,BK,Prospect Heights Community Farm,"252 St. Marks Avenue, Brooklyn, NY 11238",40.67829843830225,-73.96765157211405,"http://gis.nyc.gov/doitt/nycitymap/?z=7&p=992727,184796&c=GISBasic&s=a:252,ST+MARKS+AVENUE,BROOKLYN",food scraps,check garden for open hours,check garden for open hours,Year Round,garden membership or drop-off during garden's open hours,Prospect Heights Community Farm,Prospect Heights Community Farm,http://www.phcfarm.com/welcome/,,,,,street_address,52,2014-09-10 16:12:51.027881+00,2014-09-11 19:26:54.095477+00
0101000020E610000049F83999938052C07BCDBC6603564440,BK,Red Hook Community Farm,"580 Columbia Street, Brooklyn, NY 11231",40.680220000352904,-74.0006699998205,"http://gis.nyc.gov/doitt/nycitymap/?z=8&p=981522,184276&c=GISBasic&s=a:580,COLUMBIA+STREET,BROOKLYN",food scraps,Saturdays,10 am to 3 pm,(April - November) Check the calendar on home page for winter  “community composting” times.,"bring compostables to ""compost row"""" on the southwest edge of the farm and follow easy self-help composting instructions""",Red Hook Community Farm,Red Hook Community Farm,http://www.added-value.org/,,,,,street_address,56,2014-09-10 16:12:51.027881+00,2014-09-11 19:27:04.532822+00
0101000020E6100000AC240DC9248152C0168497851B524440,BK,Sunset Park Greenmarket,"4th Avenue and 59th Street, Brooklyn, NY 11220",40.64135999976435,-74.01363999988592,"http://gis.nyc.gov/doitt/nycitymap/?z=8&p=979306,172969&c=GISBasic&s=i:4+AVENUE,59+STREET,BROOKLYN",food scraps,Saturdays,8 am – 1 pm,"(June 23-Nov 17, 2012)",check website for specific food scrap drop-off requirements and schedule updates,DSNY & GrowNYC Food Waste Drop-Off Program,NYC Department of Sanitation,http://www.nyc.gov/html/nycwasteless/html/compost/compostproj_orp_program.shtml,,,,,intersection,64,2014-09-10 16:12:51.027881+00,2014-09-11 19:27:37.088767+00
0101000020E610000049AAA56F087952C0878043A852554440,BK,Temple of David Community Garden,"744 Dumont Avenue, 11207",,,"http://maps.nyc.gov/doitt/nycitymap/?z=8&p=1014447,182154&c=GISBasic&s=a:744,DUMONT+AVENUE,BROOKLYN","leaves, garden trimmings, food scraps",,,,,,,,Community Garden,2 or 3 bin,no,,street_address,65,2014-09-10 16:12:51.027881+00,2014-09-10 16:12:51.027881+00
0101000020E6100000D23D46D41F8052C04C2C3AA3F7564440,BK,The Brooklyn New School,"610 Henry Street, 11231",,,"http://gis.nyc.gov/doitt/nycitymap/?z=8&p=983723,186862&c=GISBasic&s=a:610,HENRY+STREET,BROOKLYN","leaves, garden trimmings, food scraps",,,,,,,,NYC Schools (K-12),outdoor worm bins,no,,street_address,66,2014-09-10 16:12:51.027881+00,2014-09-10 16:12:51.027881+00
0101000020E61000006211C30E637C52C0E085ADD9CA5A4440,BK,The Green School / Sprout Farms,"233 Graham Avenue #1F, 11206",,,"http://maps.nyc.gov/doitt/nycitymap/?z=8&p=999717,198129&c=GISBasic&s=a:233,GRAHAM+AVENUE,BROOKLYN","leaves, garden trimmings, food scraps",,,,,,,http://sproutfarms.org/,NYC Schools (K-12),enclosed bins,no,,street_address,67,2014-09-10 16:12:51.027881+00,2014-09-10 16:12:51.027881+00
0101000020E610000086032159407C52C0381E2224C1564440,BK,The High School for Public Service,"60 Kingston Avenue, 11203",,,"http://gis.nyc.gov/doitt/nycitymap/?z=8&p=1000441,186193&c=GISBasic&s=a:60,KINGSTON+AVENUE,BROOKLYN","leaves, garden trimmings, food scraps",,,,,,,http://www.hspsfarm.blogspot.com/p/about-farm.html,NYC Schools (K-12),2-3 bin systems,no,,street_address,68,2014-09-10 16:12:51.027881+00,2014-09-10 16:12:51.027881+00
0101000020E6100000D1CB28965B7C52C03EB48F15FC584440,BK,Vernon-Throop Community Garden,"253 Throop Avenue, 11206",,,"http://gis.nyc.gov/doitt/nycitymap/?z=8&p=1000031,192562&c=GISBasic&s=a:253,THROOP+AVENUE,BROOKLYN","leaves, garden trimmings, food scraps",,,,,,,,Community Garden,2 or 3 bin,no,,street_address,70,2014-09-10 16:12:51.027881+00,2014-09-10 16:12:51.027881+00
0101000020E6100000495A3B9B9F7E52C066660BADF3564440,BK,Warren/St Marks Community Garden,"Warren Street between 4th Avenue and 5th Avenue, 11217",,,"http://gis.nyc.gov/doitt/nycitymap/?z=8&p=989998,187384&c=GISBasic&s=a:625,WARREN+STREET,BROOKLYN",varies,,,,,,,http://wsgarden.org,Community Garden,varies,no,,route,71,2014-09-10 16:12:51.027881+00,2014-09-10 16:12:51.027881+00
0101000020E610000095FE147D747E52C06B9505B8C5584440,BK,Whitman-Ingersoll Resident Green Committee,"149 North Portland Avenue, 11205",,,"http://maps.nyc.gov/doitt/nycitymap/?z=8&p=991047,192047&c=GISBasic&s=a:149,NORTH+PORTLAND+AVENUE,BROOKLYN","leaves, garden trimmings, food scraps",,,,,,,,Residential,enclosed bins,no,,street_address,72,2014-09-10 16:12:51.027881+00,2014-09-10 16:12:51.027881+00
0101000020E61000007B832F4CA67A52C0E2B034F0A3584440,BK,Woodbine Block Association Garden,"146 Woodbine Street, 11221",,,"http://gis.nyc.gov/doitt/nycitymap/?z=8&p=1007434,191589&c=GISBasic&s=a:146,WOODBINE+STREET,BROOKLYN","leaves, garden trimmings, food scraps, sawdust",,,,,,,http://www.woodbinegarden.org,Community Garden,2 or 3 bin,no,,street_address,74,2014-09-10 16:12:51.027881+00,2014-09-10 16:12:51.027881+00
0101000020E610000023A46E675F7B52C04DB450D77F524440,BK,Wykoff Farm Museum,"5186 Clarendon Road, 11203",,,"http://gis.nyc.gov/doitt/nycitymap/?z=8&p=1004264,174105&c=GISBasic&s=a:5186,CLARENDON+ROAD,BROOKLYN","leaves, garden trimmings, food scraps",,,,,,,http://www.wyckoffassociation.org,Institution,2 or 3 bin,yes,,street_address,75,2014-09-10 16:12:51.027881+00,2014-09-10 16:12:51.027881+00
0101000020E610000021EA3E00297D52C044FB58C16F5F4440,QN,LIC Community Garden,"49th Avenue between Vernon Boulevard and 5th Street, 11101",,,http://gis.nyc.gov/doitt/nycitymap/?searchType=BblSearch&borough=Queens&block=32&lot=39&Submit3=Go,garden trimmings,,,,,,,,Community Garden,"open pile/bin, enclosed bins",no,,route,153,2014-09-10 16:12:51.027881+00,2014-09-10 16:12:51.027881+00
0101000020E6100000B05989D48F7C52C0FAD74D8468654440,MN,103rd Street Community Garden,"East 103rd Street between Park Avenue and Lexington Avenue, 10029",,,http://gis.nyc.gov/doitt/nycitymap/?searchType=IntersectionSearch&crossStreetOne=E+103rd+St&crossStreetTwo=Park+Ave&borough=Manhattan&Submit4=Go,"leaves, garden trimmings",,,,,,,http://www.nyrp.org/Parks_and_Gardens/Community_Gardens/Manhattan/103rd_Street_Community_Garden,Community Garden,"2 or 3 bin, enclosed bins",no,,route,76,2014-09-10 16:12:51.027881+00,2014-09-10 16:12:51.027881+00
0101000020E61000002DD736209D7E52C07000A2050D5D4440,MN,11BC Serenity Garden,"626 East 11th Street, 10009",,,http://gis.nyc.gov/doitt/nycitymap/?searchType=AddressSearch&addressNumber=626&street=E+11th+St&borough=Manhattan&Submit=Go,"leaves, garden trimmings, food scraps",,,,,,,,Community Garden,enclosed bins,no,,street_address,77,2014-09-10 16:12:51.027881+00,2014-09-10 16:12:51.027881+00
0101000020E610000076C6527F987D52C048403B962D684440,MN,124th St Garden,"West 124th Street between Mt. Morris Park West and Lennox Avenue, 10027",,,http://gis.nyc.gov/doitt/nycitymap/?searchType=IntersectionSearch&crossStreetOne=West+124th+St&crossStreetTwo=Mt+Morris+Park+West&borough=Manhattan&Submit4=Go,"leaves, garden trimmings, food scraps",,,,,,,http://groups.yahoo.com/group/communitygardenwest124st,Community Garden,varies,no,,postal_code,78,2014-09-10 16:12:51.027881+00,2014-09-10 16:12:51.027881+00
0101000020E6100000D86322A5D97E52C0200725CCB45C4440,MN,6th and B Garden,"84 Avenue B, 10009",,,http://gis.nyc.gov/doitt/nycitymap/?searchType=IntersectionSearch&crossStreetOne=E+6th+St+&crossStreetTwo=Ave+B&borough=Manhattan&Submit4=Go,"leaves, garden trimmings, food scraps",,,,,,,http://www.6bgarden.org,Community Garden,2 or 3 bin,no,,street_address,80,2014-09-10 16:12:51.027881+00,2014-09-10 16:12:51.027881+00
0101000020E61000006C802D0A167F52C0E52BDC4D4B624440,MN,57th Street Greenmarket,"57th St and 9th Avenue, New York, NY 10019",40.76489999963542,-73.98420000022969,"http://gis.nyc.gov/doitt/nycitymap/?z=8&p=988207,219050&c=GISBasic&s=i:WEST+57+STREET,9+AVENUE,MANHATTAN",food scraps,Saturdays,8 am – 1 pm,"(through Dec 22, 2012)",check website for specific food scrap drop-off requirements and schedule updates,DSNY & GrowNYC Food Waste Drop-Off Program,NYC Department of Sanitation,http://www.nyc.gov/html/nycwasteless/html/compost/compostproj_orp_program.shtml,,,,,intersection,79,2014-09-10 16:12:51.027881+00,2014-09-11 19:27:59.991525+00
0101000020E6100000BC79AA436E7E52C089096AF816644440,MN,79th Street Greenmarket,"79th Street and Columbus Avenue, New York, NY 10024",40.786299999945186,-73.9752700003101,"http://gis.nyc.gov/doitt/nycitymap/?z=8&p=991040,224164&c=GISBasic&s=i:WEST+79+STREET,COLUMBUS+AVENUE,MANHATTAN",food scraps,Sundays,9 am – 1:00 pm,,check website for specific food scrap drop-off requirements and schedule updates,DSNY & GrowNYC Food Waste Drop-Off Program,NYC Department of Sanitation,http://www.nyc.gov/html/nycwasteless/html/compost/compostproj_orp_program.shtml,,,,,intersection,81,2014-09-10 16:12:51.027881+00,2014-09-11 19:28:12.036483+00
0101000020E61000006BC2AC06977E52C099E26025D55C4440,MN,9th Street Community Garden,"Avenue C and East 9th Street, New York, 10009",,,http://gis.nyc.gov/doitt/nycitymap/?searchType=IntersectionSearch&crossStreetOne=Ave+C&crossStreetTwo=E+9th+St&borough=Manhattan&Submit4=Go,"leaves, garden trimmings, food scraps",,,,,,,http://www.myspace.com/9ccommunitygarden,Community Garden,enclosed bins,no,,intersection,84,2014-09-10 16:12:51.027881+00,2014-09-10 16:12:51.027881+00
0101000020E61000008D8642BA0E8152C0EE33D362955B4440,MN,Action Center,"6 River Terrace, 10282",,,"http://maps.nyc.gov/doitt/nycitymap/?z=8&p=979798,200028&c=GISBasic&s=a:6,RIVER+TERRACE,MANHATTAN",n/a,,,,,,,,Institution,n/a,n/a,,street_address,86,2014-09-10 16:12:51.027881+00,2014-09-10 16:12:51.027881+00
0101000020E6100000C207C089B27E52C0107EF32C525C4440,MN,All People's Garden,"293-295 East 3rd Street, 10009",,,http://maps.nyc.gov/doitt/nycitymap/?searchType=AddressSearch&addressNumber=293&street=East+3rd+St&borough=Manhattan&Submit=Go,"leaves, garden trimmings, food scraps",,,,,,,http://http//www.grownyc.org/openspace/gardens/man/all-peoples,Community Garden,enclosed bin,no,,street_address,87,2014-09-10 16:12:51.027881+00,2014-09-10 16:12:51.027881+00
0101000020E61000005E605628D27B52C05BCEA5B8AA664440,MN,Carver Community Garden,"242 East 124 Street, 10035",,,http://gis.nyc.gov/doitt/nycitymap/?searchType=AddressSearch&addressNumber=242&street=East+124+St&borough=Manhattan&Submit=Go,"leaves, garden trimmings, food scraps",,,,,,,,Community Garden,enclosed bins,no,,street_address,88,2014-09-10 16:12:51.027881+00,2014-09-10 16:12:51.027881+00
0101000020E6100000CB9CD3D1967C52C0A3433B0213664440,MN,Chenchita's Garden,"East 112th Street and Madison Avenue, 10029",,,http://gis.nyc.gov/doitt/nycitymap/?searchType=IntersectionSearch&crossStreetOne=East+112th+St&crossStreetTwo=Madison+Ave&borough=Manhattan&Submit4=Go,"leaves, garden trimmings, food scraps",,,,,,,,Community Garden,2 or 3 bin,no,,intersection,89,2014-09-10 16:12:51.027881+00,2014-09-10 16:12:51.027881+00
0101000020E6100000F111E797777C52C05E57827B54654440,MN,"City College of New York, The Bernard and Ann Spitzer School of Architechture","East 103rd Street btwn Park and Lexington Avenues, 10029",,,"http://maps.nyc.gov/doitt/nycitymap/?z=8&p=998288,227463&c=GISBasic&s=i:EAST+103+STREET,PARK+AVENUE,MANHATTAN","leaves, food scraps",,,,,,,http://http//ssa1.ccny.cuny.edu/,Institution,enclosed bin,n/a,,postal_code,90,2014-09-10 16:12:51.027881+00,2014-09-10 16:12:51.027881+00
0101000020E6100000D993652DAA7F52C0E9972DFE5B614440,MN,Clinton Community Garden,"West 48th Street btwn 9th Avenue and 10th Avenue, 10036",,,http://gis.nyc.gov/doitt/nycitymap/?searchType=BblSearch&borough=Manhattan&block=1057&lot=50&Submit3=Go,"leaves, garden trimmings, food scraps",,,,,,,http://www.clintoncommunitygarden.org,Community Garden,"2 or 3 bin, enclosed bins",no,,route,91,2014-09-10 16:12:51.027881+00,2014-09-10 16:12:51.027881+00
0101000020E6100000DDBD929A2C7D52C0C029070EC3674440,MN,Columbia Secondary School,"425 West 123rd Street, 5th floor, 10027",,,"http://maps.nyc.gov/doitt/nycitymap/?z=8&p=996391,234677&c=GISBasic&s=a:425,WEST+123+STREET,MANHATTAN",n/a,,,,,,,http://http//www.columbiasecondary.org/front,NYC Schools (K-12),n/a,n/a,,street_address,92,2014-09-10 16:12:51.027881+00,2014-09-10 16:12:51.027881+00
0101000020E6100000C07B478D097C52C0161406651A5F4440,QN,LIC Roots Community Garden,"47-08 30th Street, 11101",,,http://gis.nyc.gov/doitt/nycitymap/?searchType=BblSearch&borough=Queens&block=115&lot=163&Submit3=Go,garden trimmings,,,,,,,,Community Garden,enclosed bins,no,,street_address,154,2014-09-10 16:12:51.027881+00,2014-09-10 16:12:51.027881+00
0101000020E61000002EF136258F7F52C0AD54AB0A68604440,MN,Common Ground,"505 Eighth Avenue, 5th Floor, New York, NY 10018",,,,"garden trimmings, food scraps",,,,,,,http://www.commonground.org,Institution,enclosed bins,no,,street_address,94,2014-09-10 16:12:51.027881+00,2014-09-10 16:12:51.027881+00
0101000020E6100000989A4EFCE28052C0AC4FDE6C185A4440,MN,Compost Learning Center,"Picnic Point, Governors Island, 10004",,,"http://gis.nyc.gov/doitt/nycitymap/?z=8&p=980605,190782&c=GISBasic&s=a:1,GOVERNORS+ISLAND,MANHATTAN","leaves, garden trimmings, food scraps, chicken and goat manure",,,,,,,,Institution,"open pile, enclosed bins, 2 or 3 bin, chicken composting",yes,,postal_code,95,2014-09-10 16:12:51.027881+00,2014-09-10 16:12:51.027881+00
0101000020E61000009FFB17ADC87E52C04A39A979D85C4440,MN,Creative Little Garden,"530 East 6th Street btwn Avenue A and Avenue B, 10009",,,http://gis.nyc.gov/doitt/nycitymap/?searchType=BblSearch&borough=Manhattan&block=401&lot=25&Submit3=Go,"leaves, garden trimmings, food scraps",,,,,,,http://www.creativelittlegarden.org,Community Garden,enclosed bins,no,,route,96,2014-09-10 16:12:51.027881+00,2014-09-10 16:12:51.027881+00
0101000020E61000009FFB17ADC87E52C04A39A979D85C4440,MN,Dias y Flores Garden,"520-522 East 13th Street btwn Avenue A and Avenue B, 10009",,,http://gis.nyc.gov/doitt/nycitymap/?searchType=BblSearch&borough=Manhattan&block=406&lot=17&Submit3=Go,"leaves, garden trimmings, food scraps",,,,,,,http://diasyfloresgarden.wordpress.com,Community Garden,enclosed 2 bin,no,,route,97,2014-09-10 16:12:51.027881+00,2014-09-10 16:12:51.027881+00
0101000020E610000001B969D8947C52C06864462EEE634440,MN,92nd Street Greenmarket,"92nd Street and 1st Avenue, New York, NY 10128",40.7813999997104,-73.95056999980551,"http://gis.nyc.gov/doitt/nycitymap/?z=8&p=999041,223708&c=GISBasic&s=i:EAST+92+STREET,1+AVENUE,MANHATTAN",food scraps,Sundays,9 am – 1 pm,"(June 17-Dec 23, 2012)",check website for specific food scrap drop-off requirements and schedule updates,DSNY & GrowNYC Food Waste Drop-Off Program,NYC Department of Sanitation,http://www.nyc.gov/html/nycwasteless/html/compost/compostproj_orp_program.shtml,,,,,intersection,83,2014-09-10 16:12:51.027881+00,2014-09-11 19:28:31.681129+00
0101000020E61000008AA658DA4E8052C00025F4E9675E4440,MN,Abingdon Square Greenmarket,"West 12th Street and 8th Avenue, New York, NY, 10014",40.733929999569966,-74.00501000031113),"http://gis.nyc.gov/doitt/nycitymap/?z=8&p=982912,207985&c=GISBasic&s=i:WEST+12+STREET,8+AVENUE,MANHATTAN",food scraps,Saturdays,8 am – 1 pm,,check website for specific food scrap drop-off requirements and schedule updates,DSNY & GrowNYC Food Waste Drop-Off Program,NYC Department of Sanitation,http://www.nyc.gov/html/nycwasteless/html/compost/compostproj_orp_program.shtml,,,,,intersection,85,2014-09-10 16:12:51.027881+00,2014-09-11 19:28:42.038905+00
0101000020E6100000EDA1D865D37E52C0AE7E11D9AC5C4440,MN,Earth School Garden,"600 East 6th Street, 10009",,,http://gis.nyc.gov/doitt/nycitymap/?searchType=BblSearch&borough=Manhattan&block=387&lot=1&Submit3=Go,"garden trimmings, leaves, food scraps",,,,,,,http://www.theearthschool.org,NYC Schools (K-12),2 or 3 bin,no,,street_address,98,2014-09-10 16:12:51.027881+00,2014-09-10 16:12:51.027881+00
0101000020E610000019AF2FC84C7E52C0B1CEE792605C4440,MN,East River Park Compost Yard,"East River Park, New York, NY, 10009",,,"http://maps.nyc.gov/doitt/nycitymap/?z=8&p=991523,201074&c=GISBasic&s=p:EAST+RIVER+PARK,MANHATTAN","leaves, food scraps",,,,,,,http://www.commonground.org,Not for profit,enclosed bins and windrows,yes,,park,99,2014-09-10 16:12:51.027881+00,2014-09-10 16:12:51.027881+00
0101000020E610000065FACA28BB7E52C0BAAFB959725C4440,MN,El Jardin de Paraiso,"East 4th Street and Avenue C, 10009",,,"http://maps.nyc.gov/doitt/nycitymap/?z=8&p=989747,202424&c=GISBasic&s=i:EAST+4+STREET,AVENUE+C,MANHATTAN","leaves, garden trimmings, food scraps",,,,,,,http://http//evpcnyc.org/eljardin/,Community Garden,"2 or 3 bin, enclosed bins",n/a,,intersection,100,2014-09-10 16:12:51.027881+00,2014-09-10 16:12:51.027881+00
0101000020E61000006FC1AD16B37E52C088D0AD7C3B5D4440,MN,El Sol Brillante Jr Garden,"537 East 12th Street,10009",,,http://gis.nyc.gov/doitt/nycitymap/?searchType=BblSearch&borough=Manhattan&block=406&lot=46&Submit3=Go,"leaves, garden trimmings",,,,,,,,Community Garden,enclosed bins,no,,street_address,102,2014-09-10 16:12:51.027881+00,2014-09-10 16:12:51.027881+00
0101000020E61000008C6665FB107F52C07F19E7CAFB5D4440,MN,Friends Seminary,"222 East 16th Street, 10003",,,http://gis.nyc.gov/doitt/nycitymap/?searchType=BblSearch&borough=Manhattan&block=897&lot=16&Submit3=Go,"leaves, food scraps",,,,,,,http://www.friendsseminary.org/,Institution,enclosed bins,no,,street_address,103,2014-09-10 16:12:51.027881+00,2014-09-10 16:12:51.027881+00
0101000020E6100000E234E95B8B7E52C0252B757FAB5C4440,MN,Green Oasis Community Garden & Gilbert's Sculpture Garden,"374-388 East 8th Street, 10009",,,http://gis.nyc.gov/doitt/nycitymap/?searchType=BblSearch&borough=Manhattan&block=377&lot=18&Submit3=Go,"leaves, garden trimmings, food scraps",,,,,,,http://greenoasisgarden.net,Community Garden,"2 or 3 bin, enclosed bins",no,,street_address,105,2014-09-10 16:12:51.027881+00,2014-09-10 16:12:51.027881+00
0101000020E6100000AABA4736577C52C09C4A06802A684440,MN,Harlem Success Garden,"116 West 134th Street, NY 10039",,,"http://maps.nyc.gov/doitt/nycitymap/?z=8&p=999698,236075&c=GISBasic&s=i:WEST+134+STREET,POWELL+BOULEVARD,MANHATTAN","leaves, garden trimmings, food scraps",,,,,,,http://http//harlemgrown.org/harlem-success-garden/,Community Garden,"2 or 3 bin, enclosed bins",n/a,,street_address,106,2014-09-10 16:12:51.027881+00,2014-09-10 16:12:51.027881+00
0101000020E6100000ADC1FBAA5C7C52C05EBEF561BD654440,MN,Herb Garden,"176-178 East 111th Street, 10029",,,http://gis.nyc.gov/doitt/nycitymap/?searchType=BblSearch&borough=Manhattan&block=1638&lot=142&Submit3=Go,"leaves, garden trimmings, food scraps",,,,,,,http://www.nyrp.org/Parks_and_Gardens/Community_Gardens/Manhattan/Herb_Garden,Community Garden,"2 or 3 bin, enclosed bins",no,,street_address,107,2014-09-10 16:12:51.027881+00,2014-09-10 16:12:51.027881+00
0101000020E61000009A6F8E84C77A52C026851ED6C06F4440,MN,Inwood Hill Park,"West 218th Street and Indian Road, 10034",,,http://gis.nyc.gov/doitt/nycitymap/?searchType=BblSearch&borough=Manhattan&block=2255&lot=2000&Submit3=Go,"leaves, garden trimmings, food scraps",,,,,,,http://www.nycgovparks.org/parks/inwoodhillpark,Park,"2 or 3 bin, enclosed bins",no,,intersection,109,2014-09-10 16:12:51.027881+00,2014-09-10 16:12:51.027881+00
0101000020E61000006BC2AC06977E52C099E26025D55C4440,MN,La Plaza Cultural Garden,"East 9th Street and Avenue C, 10009",,,http://gis.nyc.gov/doitt/nycitymap/?searchType=BblSearch&borough=Manhattan&block=391&lot=30&Submit3=Go,"leaves, garden trimmings, food scraps",,,,,,,http://laplazacultural.org/,Community Garden,"2 or 3 bin, enclosed bins",no,,intersection,110,2014-09-10 16:12:51.027881+00,2014-09-10 16:12:51.027881+00
0101000020E6100000991C2DBD6C7F52C0A1E1838DA15C4440,MN,Liz Christy Garden,"110 East Houston Street, 10009",,,"http://maps.nyc.gov/doitt/nycitymap/?z=8&p=986525,203087&c=GISBasic&s=a:110,EAST+HOUSTON+STREET,MANHATTAN","leaves, garden trimmings, food scraps",,,,,,,http://http//www.lizchristygarden.us/,Community Garden,2 or 3 bin,n/a,,street_address,111,2014-09-10 16:12:51.027881+00,2014-09-10 16:12:51.027881+00
0101000020E610000094467133817F52C045566DED335C4440,MN,M'Finda Kalunga Community Garden,"Rivington Street between Chrystie Street and Forsyth Street, in Sara D. Roosevelt Park, 10003",,,http://gis.nyc.gov/doitt/nycitymap/?searchType=BblSearch&borough=Manhattan&block=420&lot=1&Submit3=Go,"leaves, garden trimmings, food scraps",,,,,,,http://mkgarden.org,Community Garden,"open pile/bin, enclosed bins",no,,park,114,2014-09-10 16:12:51.027881+00,2014-09-10 16:12:51.027881+00
0101000020E6100000C72E51BD357F52C04A09C1AA7A614440,MN,Marian S. Heiskell Garden,"315 West 48th Street, 10036",,,"http://maps.nyc.gov/doitt/nycitymap/?z=8&p=987671,216738&c=GISBasic&s=a:315,WEST+48+STREET,MANHATTAN",n/a,,,,,,,http://http//www.grownyc.org/openspace/gardens/man/marian,Community Garden,n/a,n/a,,street_address,115,2014-09-10 16:12:51.027881+00,2014-09-10 16:12:51.027881+00
0101000020E6100000CB9CD3D1967C52C0A3433B0213664440,MN,Mission Garden,"Madison Ave and East 112th Street, 10029",,,"http://maps.nyc.gov/doitt/nycitymap/?z=8&p=999007,229814&c=GISBasic&s=i:MADISON+AVENUE,EAST+112+STREET,MANHATTAN","leaves, garden trimmings, food scraps",,,,,,,,Community Garden,enclosed bin,n/a,,intersection,116,2014-09-10 16:12:51.027881+00,2014-09-10 16:12:51.027881+00
0101000020E610000079E008F7EF7A52C008A3A366596F4440,MN,Inwood Greenmarket,"Isham Street and Seaman Avenue, New York, NY, 10034",40.86663999963645,-73.92150000012475,"http://gis.nyc.gov/doitt/nycitymap/?z=8&p=1006208,256266&c=GISBasic&s=i:ISHAM+STREET,SEAMAN+AVENUE,MANHATTAN",food scraps,Saturdays,8 am – 12 pm,,check website for specific food scrap drop-off requirements and schedule updates,DSNY & GrowNYC Food Waste Drop-Off Program,New York Restoration Project,http://www.nyc.gov/html/nycwasteless/html/compost/compostproj_orp_program.shtml,,,,,intersection,108,2014-09-10 16:12:51.027881+00,2014-09-11 19:29:22.724131+00
0101000020E610000046459C4EB27E52C07F129F3BC15C4440,MN,Lower East Side Ecology Center Community Garden,"215 East 7th Street, NY 10009",40.72638999989874,-73.9809699996656),"http://gis.nyc.gov/doitt/nycitymap/?z=10&p=989812,203138&c=GISBasic&s=a:215,EAST+7+STREET,MANHATTAN",food scraps,Sundays,8 am – 5 pm,,"households only; no businesses or other commercial generators may drop off organic waste",Lower East Side Ecology Center,Lower East Side Ecology Center,http://www.lesecologycenter.org/,,,,,street_address,113,2014-09-10 16:12:51.027881+00,2014-09-11 19:29:37.476578+00
0101000020E6100000AB5D13D21A7C52C0DFDFA0BDFA6A4440,MN,Morris Jumel Community Garden,"457 West 162nd Street, 10032",,,http://gis.nyc.gov/doitt/nycitymap/?searchType=BblSearch&borough=Manhattan&block=2110&lot=58&Submit3=Go,"leaves, garden trimmings, food scraps",,,,,,,http://morrisjumelcommunitygarden.wordpress.com/,Community Garden,"2 or 3 bin, enclosed bin",no,,street_address,117,2014-09-10 16:12:51.027881+00,2014-09-10 16:12:51.027881+00
0101000020E6100000BCBD5AA4BF8052C013567435C3594440,MN,New York Harbor School,"10 South Street, 10004",,,"http://maps.nyc.gov/doitt/nycitymap/?z=8&p=981014,194687&c=GISBasic&s=a:10,SOUTH+STREET,MANHATTAN",n/a,,,,,,,http://http//www.newyorkharborschool.org/,Organization,n/a,n/a,,street_address,119,2014-09-10 16:12:51.027881+00,2014-09-10 16:12:51.027881+00
0101000020E6100000996C9791D57E52C00BB842B3465C4440,MN,Petit Versailles,"346 East Houston Street, NY",,,,"leaves, garden trimmings, food scraps",Saturday and Sunday,2:00 PM – 7:00 PM,,,"Allied Productions, Inc",,http://alliedproductions.org/,Community Garden,"2 or 3 bin, enclosed bin",no,,street_address,120,2014-09-10 16:12:51.027881+00,2014-09-10 16:12:51.027881+00
0101000020E6100000D5242EB6FF7B52C082058B1E53664440,MN,Pleasant Village Community Garden,"Pleasant Avenue between East 118th Street and East 119th Street, 10035",,,http://gis.nyc.gov/doitt/nycitymap/?searchType=BblSearch&borough=Manhattan&block=1815&lot=2&Submit3=Go,"leaves, garden trimmings, food scraps",,,,,,,http://www.lpvtv.blogspot.com,Community Garden,enclosed bins,no,,route,121,2014-09-10 16:12:51.027881+00,2014-09-10 16:12:51.027881+00
0101000020E6100000E692AAEDA67752C0B7CDF9CED4614440,QN,McIntosh Neighborhood Association Garden,"25-16 McIntosh Street, 11369",,,"http://maps.nyc.gov/doitt/nycitymap/?z=8&p=1020399,217673&c=GISBasic&s=a:25-16,MCINTOSH+STREET,QUEENS","garden trimmings, food scraps, leaves",,,,,,,http://bqlt.org/Gardens/BQLTGardens/index.php?gIndex=19,Community Garden,enclosed bins,n/a,,street_address,157,2014-09-10 16:12:51.027881+00,2014-09-10 16:12:51.027881+00
0101000020E6100000C7116BF1297C52C0C733C3A112654440,MN,Rodale Pleasant Park Community Garden,"East 114th Street between Pleasant Avenue and First Avenue, 10029",,,http://gis.nyc.gov/doitt/nycitymap/?searchType=BblSearch&borough=Manhattan&block=1708&lot=20&Submit3=Go,"leaves, garden trimmings",,,,,,,http://www.nyrp.org/Parks_and_Gardens/Community_Gardens/Manhattan/Rodale_Pleasant_Park_Community_Garden,Community Garden,"2 or 3 bin, enclosed bins",no,,route,122,2014-09-10 16:12:51.027881+00,2014-09-10 16:12:51.027881+00
0101000020E610000099F68370BB7E52C0772E8CF4A25C4440,MN,Sixth Street Community Center,"638 East 6th Street, 10009",,,http://gis.nyc.gov/doitt/nycitymap/?searchType=BblSearch&borough=Manhattan&block=387&lot=128&Submit3=Go,"leaves, garden trimmings, food scraps",,,,,,,http://www.sixthstreetcenter.org,Institution,enclosed bins,no,,street_address,124,2014-09-10 16:12:51.027881+00,2014-09-10 16:12:51.027881+00
0101000020E610000031B84148717E52C0D7451B91395E4440,MN,Stuyvesant Cove Park,"501 East 23 Street, 10010",,,http://gis.nyc.gov/doitt/nycitymap/?searchType=BblSearch&borough=Manhattan&block=981&lot=2&Submit3=Go,"leaves, garden trimmings",,,,,,,http://www.stuyvesantcove.org,Park,2 or 3 bin,no,,street_address,125,2014-09-10 16:12:51.027881+00,2014-09-10 16:12:51.027881+00
0101000020E6100000C3894391C97B52C0E50929E4EF654440,MN,Target East Harlem Garden,"415 East 117th Street, 10029",,,http://gis.nyc.gov/doitt/nycitymap/?searchType=BblSearch&borough=Manhattan&block=1710&lot=33&Submit3=Go,"leaves, garden trimmings",,,,,,,http://www.nyrp.org/Parks_and_Gardens/Community_Gardens/Manhattan/Target_East_Harlem_Community_Garden,Community Garden,open pile/bin,no,,street_address,126,2014-09-10 16:12:51.027881+00,2014-09-10 16:12:51.027881+00
0101000020E6100000A2180FA5AC7B52C0410BAE5EEA604440,QN,I.S. 204Q,"36-41 28th Street, 11106",,,"http://maps.nyc.gov/doitt/nycitymap/?z=8&p=1002910,214943&c=GISBasic&s=a:36-41,28+STREET,QUEENS",n/a,,,,,,,http://www.cae-nyc.org/schools/204_q_oliver_w_holmes_school,NYC Schools (K-12),enclosed bin,n/a,,street_address,147,2014-09-10 16:12:51.027881+00,2014-09-10 16:12:51.027881+00
0101000020E61000003E473F75077B52C01CCEFC6A0E6E4440,MN,Sherman Creek Center,"3725 10th Avenue, New York, NY 10034",40.86663999963645,-73.92150000012475),"http://gis.nyc.gov/doitt/nycitymap/?z=8&p=1006138,252047&c=GISBasic&s=a:3725,10+AVENUE,MANHATTAN","food scraps, leaves, garden trimmings",Monday – Friday,8 am – 4 pm,Year Round,"Drop off food scraps in the green metal containers within the large operations yard on the east side of the street. Do not include any metal, plastic, meat, oils, cooked foods, or highly invasive weeds. Contact jsmith@nyrp.org with any questions.",New York Restoration Project,New York Restoration Project,http://www.nyrp.org/Parks_and_Gardens/Parks/Swindler_Cove_Park/Park_Overview,Park,"open pile, enclosed bins",no,,street_address,123,2014-09-10 16:12:51.027881+00,2014-09-11 19:29:58.479304+00
0101000020E610000007640A31F27E52C02DA8B926EE5C4440,MN,Tompkins Square Greenmarket,"East 7th St. and Avenue A, New York, NY 10009",40.72638999989874,-73.9809699996656),"http://gis.nyc.gov/doitt/nycitymap/?z=8&p=988814,203798&c=GISBasic&s=i:EAST+7+STREET,AVENUE+A,MANHATTAN",food scraps,Sundays,8 am – 1 pm,,check website for specific food scrap drop-off requirements and schedule updates,DSNY & GrowNYC Food Waste Drop-Off Program,NYC Department of Sanitation,http://www.nyc.gov/html/nycwasteless/html/compost/compostproj_orp_program.shtml,,,,,intersection,127,2014-09-10 16:12:51.027881+00,2014-09-11 19:30:07.581645+00
0101000020E61000008C05CFCEB38052C0410466CFAF5B4440,MN,Tribeca Greenmarket,"Greenwich Street and Chambers Street, New York, NY 10007",40.71370000015503,-74.00789999958516,"http://gis.nyc.gov/doitt/nycitymap/?z=9&p=981187,200258&c=GISBasic&s=i:GREENWICH+STREET,CHAMBERS+STREET,MANHATTAN",food scraps,Saturdays,8 am – 1 pm,,check website for specific food scrap drop-off requirements and schedule updates,DSNY & GrowNYC Food Waste Drop-Off Program,NYC Department of Sanitation,http://www.nyc.gov/html/nycwasteless/html/compost/compostproj_orp_program.shtml,,,,,intersection,128,2014-09-10 16:12:51.027881+00,2014-09-11 19:30:21.314934+00
0101000020E610000023BBD232D27E52C0DFBA078D05634440,MN,Tucker Square Greenmarket,"66th St. and Columbus Ave., New York, NY 10023",40.77696000000418,-73.98186000023867,"http://gis.nyc.gov/doitt/nycitymap/?z=8&p=989354,221121&c=GISBasic&s=i:WEST+66+STREET,COLUMBUS+AVENUE,MANHATTAN",food scraps,Saturdays,8 am – 1:00 pm,,check website for specific food scrap drop-off requirements and schedule updates,DSNY & GrowNYC Food Waste Drop-Off Program,NYC Department of Sanitation,http://www.nyc.gov/html/nycwasteless/html/compost/compostproj_orp_program.shtml,,,,,intersection,129,2014-09-10 16:12:51.027881+00,2014-09-11 19:30:29.347215+00
0101000020E6100000CEEAD3E06C7C52C0E17CEA58A5674440,MN,Unity Gardens,"West 128th Street and Lenox Ave, 10027",,,"http://maps.nyc.gov/doitt/nycitymap/?z=8&p=999729,234275&c=GISBasic&s=i:WEST+128+STREET,LENOX+AVENUE,MANHATTAN","garden trimmings, food scraps, leaves",,,,,,,http://http//www.nycgovparks.org/parks/unitygardens/,Community Garden,2 or 3 bin,n/a,,intersection,131,2014-09-10 16:12:51.027881+00,2014-09-10 16:12:51.027881+00
0101000020E61000009886E123627C52C0EA5BE67459664440,MN,Urban Garden Center,"1640 Park Avenue, 10035",,,"http://maps.nyc.gov/doitt/nycitymap/?z=8&p=999894,230603&c=GISBasic&s=a:1640,PARK+AVENUE,MANHATTAN","garden trimmings, food scraps",,,,,,,http://http//www.urbangardennyc.com/,Business,enclosed bin,n/a,,street_address,132,2014-09-10 16:12:51.027881+00,2014-09-10 16:12:51.027881+00
0101000020E61000005589B2B7947E52C0A54BFF9254644440,MN,West Side Garden,"West 89th Street btwn Columbus Avenue and Amsterdam Avenue, 10024",,,http://gis.nyc.gov/doitt/nycitymap/?searchType=BblSearch&borough=Manhattan&block=1220&lot=17&Submit3=Go,,,,,,,,http://www.westsidecommunitygarden.org,"leaves, garden trimmings, food scraps",no,,,route,133,2014-09-10 16:12:51.027881+00,2014-09-10 16:12:51.027881+00
0101000020E6100000E7374C34487B52C0DA91EA3BBF604440,QN,ARROW Community Garden,"35-38 35th Street, NY 11106",40.75616679371618,-73.92576690882862,http://gis.nyc.gov/doitt/nycitymap/?searchType=BblSearch&borough=Queens&block=638&lot=37&Submit3=Go,garden trimmings,,,,,,,,Community Garden,varies,no,,street_address,134,2014-09-10 16:12:51.027881+00,2014-09-10 16:12:51.027881+00
0101000020E61000007C9DD497A57252C0B8CB7EDDE9584440,QN,McKinley's Children's Garden,"108-56 Union Hall Street, 11433",,,"http://maps.nyc.gov/doitt/nycitymap/?z=8&p=1042205,192405&c=GISBasic&s=i:109+AVENUE,UNION+HALL+STREET,QUEENS","leaves, garden trimmings",,,,,,,,organization,"open pile, enclosed bins",n/a,,street_address,158,2014-09-10 16:12:51.027881+00,2014-09-10 16:12:51.027881+00
0101000020E61000003A5EDCA13C7C52C0E1BEC40E19604440,QN,Baby Park Aerated Static Pile,"10-02 Queens Plaza South, Long Island City, Queens, 11101",,,"http://gis.nyc.gov/doitt/nycitymap/?z=8&p=998787,213716&c=GISBasic&s=a:10-02,QUEENS+PLAZA+SOUTH,QUEENS","food scraps, garden trimmings",,,,,,,,Park,"2-3 bin, open pile",no,,street_address,136,2014-09-10 16:12:51.027881+00,2014-09-10 16:12:51.027881+00
0101000020E6100000A64984A1697352C030B77BB94F584440,QN,Back to Eden Community Garden,"144-55 Lakewood Avenue, 11435",,,"http://gis.nyc.gov/doitt/nycitymap/?z=8&p=1038747,190620&c=GISBasic&s=a:144-55,LAKEWOOD+AVENUE,QUEENS","leaves, garden trimmings, food scraps",,,,,,,,Community Garden,enclosed bins,no,,street_address,137,2014-09-10 16:12:51.027881+00,2014-09-10 16:12:51.027881+00
0101000020E6100000B1E65B7A0F7452C0D1EBAA9BE64A4440,QN,Beach 91st Street Garden,"136 Beach 91st Street, 11691",,,"http://maps.nyc.gov/doitt/nycitymap/?z=8&p=1036098,152527&c=GISBasic&s=a:1-36,BEACH+91+STREET,QUEENS","leaves, garden trimmings, food scraps",,,,,,,http://www.thegardenpeople.org/directions.html,Community Garden,2 or 3 bins,n/a,,street_address,138,2014-09-10 16:12:51.027881+00,2014-09-10 16:12:51.027881+00
0101000020E610000052D2C3D0EA7852C09D4A06802A604440,QN,Berekely Co-op,"77th Street and 35th Avenue, 11372",,,"http://maps.nyc.gov/doitt/nycitymap/?z=8&p=1014913,213014&c=GISBasic&s=i:77+STREET,35+AVENUE,QUEENS",n/a,,,,,,,http://www.theberkeleycoop.com/,Residential,n/a,n/a,,intersection,139,2014-09-10 16:12:51.027881+00,2014-09-10 16:12:51.027881+00
0101000020E6100000AFDBB122347B52C0F2BCAF253F604440,QN,Brooklyn Grange,"37-18 Northern Boulevard., Long Island City, NY 11101",,,"http://gis.nyc.gov/doitt/nycitymap/?z=8&p=1004891,213250&c=GISBasic&s=a:37-18,NORTHERN+BOULEVARD,QUEENS","leaves, food scraps",,,,,,,http://www.brooklyngrangefarm.com/,Business,"open pile/bin, enclosed bins",no,,street_address,140,2014-09-10 16:12:51.027881+00,2014-09-10 16:12:51.027881+00
0101000020E61000008F8D40BCAE7B52C0DEB06D5166634440,QN,Build it Green!NYC,"3-17 26th Ave., Astoria, NY 11102",,,"http://gis.nyc.gov/doitt/nycitymap/?z=8&p=1002892,222223&c=GISBasic&s=a:3-17,26+AVENUE,QUEENS","leaves, food scraps",,,,,,,http://bignyc.org/,business,closed bins,no,,street_address,141,2014-09-10 16:12:51.027881+00,2014-09-10 16:12:51.027881+00
0101000020E6100000C8F77B18907352C07381261D40584440,QN,Dunton Community Garden,"143-01 Shore Avenue, 11435",,,"http://gis.nyc.gov/doitt/nycitymap/?z=8&p=1038106,190590&c=GISBasic&s=a:143-01,SHORE+AVENUE,QUEENS","leaves, garden trimmings, food scraps",,,,,,,,Community Garden,enclosed bins,no,,street_address,143,2014-09-10 16:12:51.027881+00,2014-09-10 16:12:51.027881+00
0101000020E61000007B5A3453907452C0EBEEF08DD75F4440,QN,Evergreen Community Garden,"Colden Street at Juniper Avenue, 11355",,,"http://maps.nyc.gov/doitt/nycitymap/?z=8&p=1033759,212120&c=GISBasic&s=i:COLDEN+STREET,JUNIPER+AVENUE,QUEENS","garden trimmings, leaves",,,,,,,,Community Garden,open pile,n/a,,intersection,144,2014-09-10 16:12:51.027881+00,2014-09-10 16:12:51.027881+00
0101000020E61000002B6C06B8207252C09FF42AD780644440,QN,Fort Totten Park,"Cross Island Parkway btwn Totten Avenue and 15th Road, 11360",,,"http://maps.nyc.gov/doitt/nycitymap/?z=8&p=1044583,226961&c=GISBasic&s=i:CROSS+ISLAND+PARKWAY,TOTTEN+AVENUE,N,QUEENS","leaves, food scraps, garden trimmings",,,,,,,http://www.nycgovparks.org/parks/forttotten,Park,enclosed bin,n/a,,route,145,2014-09-10 16:12:51.027881+00,2014-09-10 16:12:51.027881+00
0101000020E6100000AC095861E97B52C0D119187959604440,QN,Growing Up Green Charter School,"39-37 28th Street, 11101",,,"http://maps.nyc.gov/doitt/nycitymap/?z=8&p=1001956,213530&c=GISBasic&s=a:39-37,28+STREET,QUEENS",n/a,,,,,,,http://http//www.gugcs.org/,NYC Schools (K-12),n/a,n/a,,street_address,146,2014-09-10 16:12:51.027881+00,2014-09-10 16:12:51.027881+00
0101000020E6100000A6CA411ADF7452C0985A006432604440,QN,Intergenerational Garden at QGB,"43-50 Main Street, 11355",,,"http://maps.nyc.gov/doitt/nycitymap/?z=8&p=1031523,212704&c=GISBasic&s=a:43-50,MAIN+STREET,QUEENS","garden trimmings, leaves",,,,,,,http://www.queensbotanical.org/programs/IntergenerationalGarden,Community Garden,n/a,n/a,,street_address,148,2014-09-10 16:12:51.027881+00,2014-09-10 16:12:51.027881+00
0101000020E6100000A596F782607952C061122EE411604440,QN,JH Scraps,"35th Ave & 69th Street, 11377",,,"http://gis.nyc.gov/doitt/nycitymap/?z=8&p=1012916,212736&c=GISBasic&s=i:35+AVENUE,69+STREET,QUEENS","leaves, food scraps",,,,,,,,Community Garden,enclosed bins,no,,intersection,150,2014-09-10 16:12:51.027881+00,2014-09-10 16:12:51.027881+00
0101000020E610000047FBC4A6BA7452C0DA4B6430905E4440,QN,John Bowne High School,"63-25 Main Street, 11367",,,http://gis.nyc.gov/doitt/nycitymap/?searchType=BblSearch&borough=Queens&block=6507&lot=1&Submit3=Go,"leaves, garden trimmings, animal bedding, farm waste",,,,,,,http://johnbowne.org,NYC Schools (K-12),2 or 3 bin,no,,street_address,151,2014-09-10 16:12:51.027881+00,2014-09-10 16:12:51.027881+00
0101000020E6100000C0A618317D7152C0749E0CE94B624440,QN,Lutheran School of Flushing and Bayside,"36-02 Bell Boulevard, 11361",,,"http://maps.nyc.gov/doitt/nycitymap/?z=8&p=1046992,219083&c=GISBasic&s=a:36-02,BELL+BOULEVARD,QUEENS","leaves, garden trimmings, food scraps",,,,,,,http://lsfb.org/LSFBWebsite/Welcome.html,NYC Schools (K-12),enclosed bin,n/a,,street_address,156,2014-09-10 16:12:51.027881+00,2014-09-10 16:12:51.027881+00
0101000020E6100000DE24613A887152C01426E71FD8574440,QN,Merrick-Marsden Neighbors Association Garden,"11818–11820 Merrick Boulevard, 11377",,,"http://gis.nyc.gov/doitt/nycitymap/?z=8&p=1012916,212736&c=GISBasic&s=i:35+AVENUE,69+STREET,QUEENS",garden trimmings,,,,,,,,Community Garden,enclosed bins,no,,street_address,159,2014-09-10 16:12:51.027881+00,2014-09-10 16:12:51.027881+00
0101000020E61000005EF75624267752C0CA32C4B12E584440,QN,New Life Community Farm,"88-38 80th Street, 11421",,,"http://maps.nyc.gov/doitt/nycitymap/?z=8&p=1022627,190315&c=GISBasic&s=a:88-38,80+STREET,QUEENS","garden trimmings, leaves, food scraps",,,,,,,,Community Garden,"2 or 3 bin, enclosed bins",n/a,,street_address,160,2014-09-10 16:12:51.027881+00,2014-09-10 16:12:51.027881+00
0101000020E6100000287D21E4BC7452C01BE5AAC31B5E4440,QN,New Life Community Farm,"144-39 Gravett Road, 11367",,,"http://maps.nyc.gov/doitt/nycitymap/?z=8&p=1033146,207500&c=GISBasic&s=a:144-39,GRAVETT+ROAD,QUEENS","leaves, garden trimmings, food scraps",,,,,,,,NYC Schools (K-12),enclosed bin,n/a,,street_address,161,2014-09-10 16:12:51.027881+00,2014-09-10 16:12:51.027881+00
0101000020E6100000A6CA411ADF7452C0985A006432604440,QN,Queens Botanical Garden,"43-50 Main Street, 11355",,,http://gis.nyc.gov/doitt/nycitymap/?searchType=BblSearch&borough=Queens&block=5107&lot=200&Submit3=Go,"leaves, garden trimmings, food scraps",,,,,,,http://www.queensbotanical.org/education/56847/composting,Institution,"open bin, enclosed bin, worm bins, 2 or 3 bin",no,,street_address,162,2014-09-10 16:12:51.027881+00,2014-09-10 16:12:51.027881+00
0101000020E6100000887489343B7452C07B1684F23E5E4440,QN,Queens College Garden,"65-30 Kissena Blvd, 11367",,,"http://maps.nyc.gov/doitt/nycitymap/?z=8&p=1035197,207456&c=GISBasic&s=a:65-30,KISSENA+BOULEVARD,QUEENS","leaves, garden trimmings, food scraps",,,,,,,http://www.qc.cuny.edu/Pages/home.aspx,Institution,enclosed bins,n/a,,street_address,163,2014-09-10 16:12:51.027881+00,2014-09-10 16:12:51.027881+00
0101000020E6100000D0C5F022DD7B52C0486469F173614440,QN,Ravenswood NYCHA Resident Green Committee,"21st Street and 35th Avenue, 11106",,,"http://maps.nyc.gov/doitt/nycitymap/?z=8&p=1002149,216666&c=GISBasic&s=i:21+STREET,35+AVENUE,QUEENS","leaves, garden trimmings",,,,,,,http://greennycha.org/,Residential,open pile,n/a,,intersection,165,2014-09-10 16:12:51.027881+00,2014-09-10 16:12:51.027881+00
0101000020E6100000089854C8707452C0D6CE41E1FD4A4440,QN,Rockaway Resource Recovery,"Beach 97th Street and Rockaway Freeway, 11693",,,"http://maps.nyc.gov/doitt/nycitymap/?z=8&p=1034429,152746&c=GISBasic&s=i:BEACH+97+STREET,ROCKAWAY+FREEWAY,QUEENS",leaves,,,,,,,http://ioby.org/project/rockaway-resource-recovery-compost-garden,organization,"open pile, enclosed bins",n/a,,intersection,167,2014-09-10 16:12:51.027881+00,2014-09-10 16:12:51.027881+00
0101000020E610000027B792C2617C52C0099F52CA105F4440,QN,Smiling Hogshead Ranch,"47-26 Davis Court, 11101",,,"http://maps.nyc.gov/doitt/nycitymap/?z=8&p=999916,209832&c=GISBasic&s=a:47-26,DAVIS+COURT,QUEENS","garden trimmings, leaves, food scraps",,,,,,,http://getdirtynyc.com/garden/smiling-hogshead-ranch/,Community Garden,"open window, enclosed bins, open pile",no,,street_address,168,2014-09-10 16:12:51.027881+00,2014-09-10 16:12:51.027881+00
0101000020E6100000CC56A87FDA7252C0F09C2D20B45C4440,QN,St John's University,"8000 Utopia Parkway, 11432",,,"http://maps.nyc.gov/doitt/nycitymap/?z=8&p=1041166,202449&c=GISBasic&s=a:80-00,UTOPIA+PARKWAY,QUEENS","leaves, food scraps, garden trimmings",,,,,,,http://www.stjohns.edu/about/general/directions/directions/queens,Institution,"2 or 3 bin, open pile/bin, enclosed bins",n/a,,street_address,171,2014-09-10 16:12:51.027881+00,2014-09-10 16:12:51.027881+00
0101000020E6100000EEE30DD5B96D52C0CA30934D5E5E4440,QN,Queens County Farm Museum,"73-50 Little Neck Parkway, Floral Park, NY 11004-1129",40.748013882013595,-73.71942969880695,http://gis.nyc.gov/doitt/nycitymap/?searchType=BblSearch&borough=Queens&block=8401&lot=1&Submit3=Go,food scraps,Monday - Sunday,10 am – 4:30 pm,,"food scrap drop off only when farm stand in operation; look for the bin and the ""What to Compost"""" sign""",Queens County Farm Museum,Queens County Farm Museum,http://www.queensfarm.org/,Institution,open windrows,no,,street_address,164,2014-09-10 16:12:51.027881+00,2014-09-11 19:32:46.628743+00
0101000020E6100000735D424F147C52C08DF1BCAF25624440,QN,Socrates Sculpture Park Greenmarket,"32-01 Vernon Boulevard, Long Island City, NY 11106",40.76764885342166,-73.93609480317753,"http://gis.nyc.gov/doitt/nycitymap/?z=8&p=1001742,218692&c=GISBasic&s=a:32-01,VERNON+BOULEVARD,QUEENS",food scraps,Saturdays,9 am – 12 pm,,food scrap drop off only when farmers market is in operation,Western Queens Compost Initiative  through the NYC Compost Project Local Organics Recovery Program,Western Queens Compost Initiative  through the NYC Compost Project Local Organics Recovery Program,http://www.socratessculpturepark.org/,Park,"2-3 bin, open pile",no,,street_address,169,2014-09-10 16:12:51.027881+00,2014-09-11 19:32:55.709627+00
0101000020E610000013BDE71BAC7852C0C396C39382604440,QN,"St Mark's Compost Program, St. Marks Church","33-50 82nd Street, 11372",,,http://gis.nyc.gov/doitt/nycitymap/?searchType=BblSearch&borough=Queens&block=1254&lot=32&Submit3=Go,"leaves, food scraps",,,,,,,http://saintmarks.net,Institution,"open pile/bin, enclosed bins",yes dsny compost giveback,http://www.nyc.gov/html/nycwasteless/html/compost/collections_givebacks.shtml,premise,172,2014-09-10 16:12:51.027881+00,2014-09-10 16:12:51.027881+00
0101000020E6100000C72DE6E7867A52C09F724C16F75F4440,QN,Sunnyside Gardens Community Garden,"48-21 39th Avenue, 11104",,,http://gis.nyc.gov/doitt/nycitymap/?searchType=BblSearch&borough=Queens&block=123&lot=44&Submit3=Go,garden trimmings,,,,,,,http://www.sunnysidegardenspark.org,Community Garden,"2 or 3 bin, enclosed bins",no,,street_address,174,2014-09-10 16:12:51.027881+00,2014-09-10 16:12:51.027881+00
0101000020E6100000DC8A0E92CF7552C0196A5E1FE75B4440,QN,The Compost Collective,"50 Ascan Avenue, 11375",,,"http://gis.nyc.gov/doitt/nycitymap/?z=8&p=1028194,200307&c=GISBasic&s=a:50,ASCAN+AVENUE,QUEENS","leaves, garden trimmings, food scraps",,,,,,,,Institution,enclosed bin,no,,street_address,176,2014-09-10 16:12:51.027881+00,2014-09-10 16:12:51.027881+00
0101000020E61000003E7958A8357952C0144031B264604440,QN,The Windsor Co-op,"72-17 34th Avenue, 11372",,,"http://maps.nyc.gov/doitt/nycitymap/?z=8&p=1013642,213659&c=GISBasic&s=a:72-17,34+AVENUE,QUEENS","leaves, garden trimmings, food scraps",,,,,,,,Residential,"open pile, enclosed bin",n/a,,street_address,177,2014-09-10 16:12:51.027881+00,2014-09-10 16:12:51.027881+00
0101000020E6100000CA91297A3B7652C098B4F347625C4440,QN,Tu Ha'Aretz CSA at Forest Hills Jewish Center,"106-06 Queens Blvd, 11375",,,"http://maps.nyc.gov/doitt/nycitymap/?z=8&p=1026517,202225&c=GISBasic&s=a:106-06,QUEENS+BOULEVARD,QUEENS","leaves, garden trimmings, food scraps",,,,,,,http://http//www.fhjc.org/,organization,enclosed bin,n/a,,street_address,178,2014-09-10 16:12:51.027881+00,2014-09-10 16:12:51.027881+00
0101000020E6100000332ABA3FA87B52C0DE3AFF76D9624440,QN,Two Coves Community Garden,"11-01 30th Avenue, 11102",,,http://gis.nyc.gov/doitt/nycitymap/?searchType=BblSearch&borough=Queens&block=508&lot=20&Submit3=Go,"leaves, garden trimmings, food scraps",,,,,,,http://www.twocovescommunitygarden.org,Community Garden,"2 or 3 bin, open pile/bin, enclosed bins",no,,street_address,180,2014-09-10 16:12:51.027881+00,2014-09-10 16:12:51.027881+00
0101000020E6100000C87DAB75E27B52C00D52F01472574440,BK,462 Halsey Community Garden,"462 Halsey Street, Brooklyn, NY 11223",40.68338860098805,-73.9357346332942,"http://gis.nyc.gov/doitt/nycitymap/?z=8&p=1002094,188192&c=GISBasic&s=a:462,HALSEY+STREET,BROOKLYN",food scraps,whenever the garden is open,whenever the garden is open,whenever the garden is open,check website regularly for drop off schedule updates,462 Halsey Community Garden,462 Halsey Community Garden,http://462halsey.com,Community Garden,"2 or 3 bin, enclosed bin, open pile",no,,street_address,3,2014-09-10 16:12:51.027881+00,2014-09-11 19:24:20.921031+00
0101000020E6100000B6B9D683EE7A52C0288293C8995F4440,QN,Sunnyside Greenmarket,"43rd Street and Skillman Avenue, Sunnyside, NY 11104",40.743759999624444,-73.9216400002856,http://gis.nyc.gov/doitt/nycitymap/?searchType=IntersectionSearch&crossStreetOne=43rd+St&crossStreetTwo=Skillman+Ave&borough=Queens&Submit4=Go,food scraps,Saturdays,9 am – 12 pm,,food scrap drop off only when farmers market is in operation,Western Queens Compost Initiative  through the NYC Compost Project Local Organics Recovery Program,Western Queens Compost Initiative  through the NYC Compost Project Local Organics Recovery Program,http://www.nyc.gov/html/nycwasteless/html/compost/compostproj_orp_program.shtml,,,,,intersection,175,2014-09-10 16:12:51.027881+00,2014-09-11 19:33:14.149914+00
0101000020E6100000332ABA3FA87B52C0DE3AFF76D9624440,QN,Two Coves Community Garden,"11-01 30th Avenue
Astoria, NY 11104",40.77205438915846,-73.93211351051998,"http://gis.nyc.gov/doitt/nycitymap/?z=8&p=1002982,220679&c=GISBasic&s=l:QUEENS,508,20,PLUTO",food scraps,garden open hours,,,"for most current information, please email wqnscompost@gmail.com",NYC Compost Project Local Organics Recovery Program,Western Queens Compost Initiative  through the NYC Compost Project Local Organics Recovery Program,http://www.nyc.gov/html/nycwasteless/html/compost/compostproj_orp_program.shtml,,,,,street_address,179,2014-09-10 16:12:51.027881+00,2014-09-11 19:33:24.536021+00
0101000020E6100000E4D70FB1C17952C0E5B33C0FEE544440,BK,Powell Street Community Garden,"Livonia Avenue between Powell Street and Junius Street, 11212",,,"http://maps.nyc.gov/doitt/nycitymap/?z=8&p=1011462,181054&c=GISBasic&s=k:LIVONIA+AVENUE,POWELL+STREET,JUNIUS+STREET,BROOKLYN","leaves, garden trimmings",,,,,,,,Community Garden,"enclosed bin, 2 or 3 bin",no,,subway_station,50,2014-09-10 16:12:51.027881+00,2014-09-10 16:45:51.80127+00
0101000020E61000004343B577FC8452C079C7CE801F524440,SI,St. George Greenmarket,"St. Marks Place and Hyatt Street.
Staten Island, NY 10301",40.631469999640956,-74.09150999988645,"http://gis.nyc.gov/doitt/nycitymap/?z=8&p=962631,173033&c=GISBasic&s=i:ST+MARK+PLACE,HYATT+STREET,STATEN+ISLAND",food scraps,Saturdays,8 am – 1:00 pm,(May 12-Nov 17 2012),check website for specific food scrap drop-off requirements and schedule updates,DSNY & GrowNYC Food Scrap Drop-Off Program,NYC Department of Sanitation,http://www.nyc.gov/html/nycwasteless/html/compost/compostproj_orp_program.shtml,,,,,intersection,181,2014-09-10 16:12:51.027881+00,2014-09-11 19:33:35.256588+00
0101000020E6100000711294ECA28A52C0DC93D112754A4440,SI,Staten Island Mall Greenmarket,"2655 Richmond Avenue Staten Island, NY 10315",40.64244000010609,-74.07527999967209,"http://gis.nyc.gov/doitt/nycitymap/?z=8&p=938176,151310&c=GISBasic&s=a:2655,RICHMOND+AVENUE,STATEN+ISLAND",food scraps,Saturdays,9 am – 1 pm,(June 23-Dec 22 2012),check website for specific food scrap drop-off requirements and schedule updates,DSNY & GrowNYC Food Scrap Drop-Off Program,NYC Department of Sanitation,http://www.nyc.gov/html/nycwasteless/html/compost/compostproj_orp_program.shtml,,,,,street_address,182,2014-09-10 16:12:51.027881+00,2014-09-11 19:33:50.01371+00
0101000020E6100000750877C2268252C0EE60C43E014F4440,BK,Bay Ridge Greenmarket,"3rd Ave and 95th Street, Brooklyn, NY 11209",40.62450999973686,-74.03007000033011,"http://gis.nyc.gov/doitt/nycitymap/?z=8&p=974925,164169&c=GISBasic&s=i:3+AVENUE,95+STREET,N,BROOKLYN",food scraps,Saturdays,8 am – 1:00 pm,"May 12-Nov 17, 2012",check website regularly for drop off schedule updates,DSNY & GrowNYC Food Waste Drop-Off Program,NYC Department of Sanitation,http://www.nyc.gov/html/nycwasteless/html/compost/compostproj_orp_program.shtml,,,,,intersection,8,2014-09-10 16:12:51.027881+00,2014-09-11 19:24:54.155268+00
0101000020E61000007ECE9321FD7C52C0A0CF36ED185C4440,BK,McCarren Park Greenmarket,"229 North 12th Street, Brooklyn, NY 11211",40.71978151369627,-73.95335566994004,"http://gis.nyc.gov/doitt/nycitymap/?z=8&p=997287,201419&c=GISBasic&s=a:229,NORTH+12+STREET,BROOKLYN",food scraps,Saturdays,8 am – 2 pm,Year Round,check website for specific food scrap drop-off requirements and schedule updates,DSNY & GrowNYC Food Waste Drop-Off Program,GrowNYC community partners,http://www.nyc.gov/html/nycwasteless/html/compost/compostproj_orp_program.shtml,,,,,street_address,46,2014-09-10 16:12:51.027881+00,2014-09-11 19:26:34.783573+00
0101000020E610000021A00C9FBE7D52C0145F48E240674440,MN,Columbia University Greenmarket,"Broadway and West 114th Street, New York, NY, 10025",40.798120000038125,-73.96729000013323,"http://gis.nyc.gov/doitt/nycitymap/?z=8&p=993981,233184&c=GISBasic&s=i:BROADWAY,WEST+114+STREET,MANHATTAN",food scraps,Sundays,8 am – 1 pm,,check website for specific food scrap drop-off requirements and schedule updates,DSNY & GrowNYC Food Waste Drop-Off Program,NYC Department of Sanitation,http://www.nyc.gov/html/nycwasteless/html/compost/compostproj_orp_program.shtml,,,,,intersection,93,2014-09-10 16:12:51.027881+00,2014-09-11 19:29:02.051459+00
0101000020E6100000E7374C34487B52C0DA91EA3BBF604440,QN,Astoria Arrow Community Supported Agriculture,"35-38 35th Street, NY 11106",40.75616679371618,-73.92576690882862,"http://gis.nyc.gov/doitt/nycitymap/?z=8&p=1004640,214672&c=GISBasic&s=a:35-30,35+STREET,QUEENS",food scraps,Thursday,4:30 - 7:30 PM,(May 31 to Nov 29)(skip November 22),food scrap drop-off when CSA is in operation,NYC Compost Project Local Organics Recovery Program,Western Queens Compost Initiative  through the NYC Compost Project Local Organics Recovery Program,http://www.nyc.gov/html/nycwasteless/html/compost/compostproj_orp_program.shtml,,,,,street_address,135,2014-09-10 16:12:51.027881+00,2014-09-11 19:31:17.343897+00
0101000020E61000001C0B0A83327D52C0EA74C531375F4440,QN,Long Island City Community Garden,"49th Avenue and 5th Street, Long Island City, NY 11101",40.74828999988375,-73.94114000021068,"http://gis.nyc.gov/doitt/nycitymap/?z=10&p=996849,210135&c=GISBasic&s=i:49+AVENUE,VERNON+BOULEVARD,QUEENS",food scraps,email licgardencompost@gmail.com for info,,Year Round,"food scrap drop off during designated collection times only; email licgardencompost@gmail.com for info",Long Island City Community Garden,Long Island City Community Garden,,,,,,intersection,155,2014-09-10 16:12:51.027881+00,2014-09-11 19:32:19.767871+00
0101000020E6100000FBF32334387A52C04145D5AF74634440,QN,Steinway Library,"21-45 31st Street, Queens NY 11105",40.77617000044535,-73.90902999973457,"http://maps.nyc.gov/doitt/nycitymap/?z=8&p=1009335,222304&c=GISBasic&s=a:21-45,31+STREET,QUEENS","leaves, garden trimmings, food scraps",Tuesdays,4 pm – 5 pm,,"for most current information, please email wqnscompost@gmail.com",Western Queens Compost Initiative  through the NYC Compost Project Local Organics Recovery Program,Western Queens Compost Initiative  through the NYC Compost Project Local Organics Recovery Program,http://bignyc.org/western-queens-compost-initiative,organization,enclosed bin,n/a,,street_address,173,2014-09-10 16:12:51.027881+00,2014-09-11 19:33:04.389562+00
0101000020E6100000D0B3FE3BC77F52C015C616821C574440,BK,Carrol Gardens Greenmarket,"375 Court Street, Brooklyn, NY 11231",40.680220000352904,-74.0006699998205,"http://gis.nyc.gov/doitt/nycitymap/?z=8&p=985667,187092&c=GISBasic&s=i:SMITH+STREET,CARROLL+STREET,S,BROOKLYN",food scraps,Sundays,8 am – 1 pm,,check website regularly for drop off schedule updates,DSNY & GrowNYC Food Waste Drop-Off Program,NYC Department of Sanitation,http://www.nyc.gov/html/nycwasteless/html/compost/compostproj_orp_program.shtml,,,,,street_address,19,2014-09-10 16:12:51.027881+00,2014-09-11 19:25:27.558264+00
0101000020E610000094FB1D8A027E52C0F9927CDB02514440,BK,Compost For Brooklyn,"Newkirk Ave and East 8th Street, Brooklyn, NY 11230",40.62294000018102,-73.96349999982499,"http://gis.nyc.gov/doitt/nycitymap/?z=9&p=993099,170308&c=GISBasic&s=i:NEWKIRK+AVENUE,EAST+8+STREET,BROOKLYN","food scraps, leaves, garden trimmings","Saturdays, Sundays, Thursdays","Sat: 10 am– 1 pm; Sun  1 – 4 pm; Thur  4:30 to 6:30 PM",Year Round,check website regularly for drop off schedule updates,Compost For Brooklyn,Compost For Brooklyn,http://compostforbrooklyn.org/,Community Garden,2 or 3 bin,no,,intersection,22,2014-09-10 16:12:51.027881+00,2014-09-11 19:25:37.60303+00
0101000020E61000007C56E3B6477E52C09BD4867945584440,BK,Fort Greene Greenmarket,"Washington Park and Dekalb Avenue, Brooklyn 11217",40.69373999970139,-73.99130999985647,"http://gis.nyc.gov/doitt/nycitymap/?z=8&p=991703,190525&c=GISBasic&s=i:DEKALB+AVENUE,WASHINGTON+PARK,BROOKLYN",food scraps,Saturdays,8 am – 3 pm,Year Round,check website for specific food scrap drop-off requirements and schedule updates,DSNY & GrowNYC Food Waste Drop-Off Program,GrowNYC community partners,http://www.nyc.gov/html/nycwasteless/html/compost/compostproj_orp_program.shtml,,,,,intersection,34,2014-09-10 16:12:51.027881+00,2014-09-11 19:25:59.161043+00
0101000020E61000007ECE9321FD7C52C0A0CF36ED185C4440,BK,North Brooklyn Compost Project @ McCarren Park,"229 North 12th Street, Brooklyn, NY 11211",40.71978151369627,-73.95335566994004,"http://gis.nyc.gov/doitt/nycitymap/?z=8&p=997287,201419&c=GISBasic&s=a:229,NORTH+12+STREET,BROOKLYN",food scraps,Saturdays,9 am – 12 pm,Year Round,must assist with maintenance of compost site,North Brooklyn Compost Project,North Brooklyn Compost Project,http://northbrooklyncompostproject.wordpress.com/,,,,,street_address,48,2014-09-10 16:12:51.027881+00,2014-09-11 19:26:45.080564+00
0101000020E6100000E1D40792777E52C098480E7D1C544440,BK,Windsor Terrace - PS 154 Greenmarket @PS 154,"1625 11th Avenue, Brooklyn, 11215",40.66783000005461,-73.9829100000963,"http://gis.nyc.gov/doitt/nycitymap/?z=8&p=990877,178667&c=GISBasic&s=a:1625,11+AVENUE,BROOKLYN",food scraps,Sundays,8 am – 1:00 pm,"(July 8-Nov 18, 2012)",check website for specific food scrap drop-off requirements and schedule updates,DSNY & GrowNYC Food Waste Drop-Off Program,NYC Department of Sanitation,http://www.nyc.gov/html/nycwasteless/html/compost/compostproj_orp_program.shtml,,,,,street_address,73,2014-09-10 16:12:51.027881+00,2014-09-11 19:27:48.575454+00
0101000020E61000005E34BFF5BC7C52C06D4C99E5FC624440,MN,82nd Street Greenmarket,"East 82nd Street and York Avenue, New York, NY 10028",40.77601999982329,-73.95274999961265,"http://gis.nyc.gov/doitt/nycitymap/?z=8&p=997935,221182&c=GISBasic&s=l:MANHATTAN,1561,37,PLUTO",food scraps,Saturdays,9 am – 1 pm,,check website for specific food scrap drop-off requirements and schedule updates,DSNY & GrowNYC Food Waste Drop-Off Program,NYC Department of Sanitation,http://www.nyc.gov/html/nycwasteless/html/compost/compostproj_orp_program.shtml,,,,,intersection,82,2014-09-10 16:12:51.027881+00,2014-09-11 19:28:22.034937+00
0101000020E6100000E19A3BFADF8052C0C2F5CDA21C5A4440,MN,Governor's Island Public Food Scrap Drop-Off Sites,"Governors Island, New York, NY 10004",40.70139752462481,-74.0116374125671),"http://gis.nyc.gov/doitt/nycitymap/?z=8&p=980605,190782&c=GISBasic&s=a:1,GOVERNORS+ISLAND,MANHATTAN",food scraps,whenever Governors Island is open to the public,whenever Governors Island is open to the public,,check Trust for Governors Island   website for specific food scrap drop-off sites on Governors Island and schedule updates,NYC Compost Project Local Organics Recovery Program,Earth Matter NY  through the NYC Compost Project Local Organics Recovery Program,http://www.nyc.gov/html/nycwasteless/html/compost/compostproj_orp_program.shtml,,,,,premise,104,2014-09-10 16:12:51.027881+00,2014-09-11 19:29:13.119966+00
0101000020E6100000CFD7D1DD1A8052C06B5A73918C5A4440,MN,New Amsterdam Market,"South Street and Peck Slip, New York, NY 10038",40.70904999975784,-74.00542999989443),"http://gis.nyc.gov/doitt/nycitymap/?z=8&p=983762,196866&c=GISBasic&s=k:SOUTH+STREET,BEEKMAN+STREET,PECK+SLIP,MANHATTAN",food scraps,Sundays,8 am – 5 pm,Year Round,"households only; no businesses or other commercial generators may drop off organic waste",NYC Compost Project Local Organics Recovery Program,Earth Matter NY  through the NYC Compost Project Local Organics Recovery Program,http://www.nyc.gov/html/nycwasteless/html/compost/compostproj_orp_program.shtml,,,,,street_address,118,2014-09-10 16:12:51.027881+00,2014-09-11 19:29:48.448696+00
0101000020E6100000F788E29F637F52C09643E6255A5E4440,MN,Union Square Greenmarket,"East 17th Street and Broadway, New York, NY 10003",40.73692524139233,-73.99048535843798,http://gis.nyc.gov/doitt/nycitymap/?searchType=AddressSearch&addressNumber=39&street=union+sq+west&borough=Manhattan&Submit=Go,food scraps,"Mondays, Wednesdays, Fridays, Saturdays",8 am – 5 pm,Year Round,"households only; no businesses or other commercial generators may drop off organic waste",Lower East Side Ecology Center,Lower East Side Ecology Center,http://www.lesecologycenter.org/,,,,,street_address,130,2014-09-10 16:12:51.027881+00,2014-09-11 19:30:38.745006+00
0101000020E61000006D776A89F07852C0D06C0D5B69604440,QN,Jackson Heights Greenmarket,"34th Ave at 77th St, Jackson Heights, NY 11372",40.752350000052616,-73.88213999986095,"http://gis.nyc.gov/doitt/nycitymap/?z=8&p=1014814,213723&c=GISBasic&s=i:34+AVENUE,77+STREET,QUEENS",food scraps,Sundays,9 am – 12 pm,Year round,food scrap drop off when farmers market is in operation,Western Queens Compost Initiative  through the NYC Compost Project Local Organics Recovery Program,Western Queens Compost Initiative  through the NYC Compost Project Local Organics Recovery Program,http://www.nyc.gov/html/nycwasteless/html/compost/compostproj_orp_program.shtml,,,,,intersection,149,2014-09-10 16:12:51.027881+00,2014-09-11 19:31:30.417368+00
